{"version": 0.6, "generator": "Overpass API 0.7.57.1 74a55df1", "osm3s": {"timestamp_osm_base": "2022-02-16T09:26:41Z", "timestamp_areas_base": "2022-02-16T08:28:58Z", "copyright": "The data included in this document is from www.openstreetmap.org. The data is made available under ODbL."}, "elements": [{"type": "node", "id": 100873503, "lat": 47.5595606, "lon": 8.5360561, "tags": {"access": "yes", "alt_name": "Pechpfannenh\u00fcsli", "castle_type": "tower", "description": "Hochwacht, 1655 zum festen Wachturm ausgebaut, 1812 aufgelassen.", "historic": "castle", "historic:civilization": "medieval", "name": "Hochwacht Rhinsberg", "ruins": "yes", "start_date": "C17", "wikidata": "Q101445889", "wikipedia": "de:Hochwacht Rhinsberg"}}, {"type": "node", "id": 259024613, "lat": 47.4732192, "lon": 8.3053033, "tags": {"access": "yes", "castle_type": "defensive", "ele": "448", "historic": "castle", "historic:civilization": "medieval", "name": "Ruine Stein", "name:de": "Ruine Stein", "name:gsw": "Ruine Schtei", "ruins": "yes", "tourism": "attraction", "wheelchair": "no", "wikidata": "Q687130", "wikipedia": "de:Ruine Stein"}}, {"type": "node", "id": 261672616, "lat": 47.3872992, "lon": 8.1852476, "tags": {"castle_type": "defensive", "email": "info@schloss-lenzburg.ch", "historic": "castle", "name": "Schloss Lenzburg", "opening_hours": "Apr-Oct: Tu-Su 10:00-17:00", "website": "https://www.schloss-lenzburg.ch/", "wikidata": "Q668647", "wikipedia": "de:Schloss Lenzburg"}}, {"type": "node", "id": 264764892, "lat": 47.3834658, "lon": 7.607347, "tags": {"castle_type": "defensive", "ele": "710", "historic": "castle", "name": "Ruine Gilgenberg", "ruins": "yes", "wikidata": "Q2175270", "wikipedia:de": "Ruine_Gilgenberg"}}, {"type": "node", "id": 265284963, "lat": 47.1275996, "lon": 7.2398866, "tags": {"castle_type": "stately", "historic": "castle", "historic:civilization": "medieval", "name": "Schloss Nidau", "wikidata": "Q254290", "wikimedia_commons": "Category:Schloss_Nidau", "wikipedia": "de:Schloss Nidau"}}, {"type": "node", "id": 267360293, "lat": 47.1473891, "lon": 7.4266007, "tags": {"access": "yes", "castle_type": "defensive", "ele": "557", "historic": "castle", "historic:civilization": "medieval", "name": "Teufelsburg", "ruins": "yes", "wikidata": "Q1157656", "wikipedia": "de:Teufelsburg (Schweiz)"}}, {"type": "node", "id": 270412067, "lat": 47.2087139, "lon": 9.010376, "tags": {"access": "yes", "castle_type": "defensive", "description": "Mauerrest des Wohnturmes einer Wasserburg, der am Ufer des damaligen Tuggener-Sees stand. Erbaut vermutlich im 13. Jh., erwiesen 1358, vermutlich im Alten Z\u00fcrichkrieg 1444 zerst\u00f6rt. Sondierung 1897, Ausgrabung 1936/37. (Quelle: Burgenverein.ch)", "historic": "castle", "historic:civilization": "medieval", "name": "Burgruine Bibiton", "ruins": "yes", "wikidata": "Q1010994", "wikipedia": "de:Burg Bibiton"}}, {"type": "node", "id": 278138119, "lat": 46.7373061, "lon": 6.7665865, "tags": {"alt_name": "Ch\u00e2teau baillival de Vuissens", "castle_type": "stately", "historic": "castle", "name": "Ch\u00e2teau de Vuissens", "website": "https://www.lechateaudevuissens.com/", "wikidata": "Q29689566"}}, {"type": "node", "id": 278572856, "lat": 47.2132668, "lon": 8.6848175, "tags": {"access": "yes", "castle_type": "defensive", "historic": "castle", "historic:civilization": "medieval", "name": "Ruine Schloss Alt-W\u00e4denswil", "ruins": "yes", "wheelchair": "no", "wikidata": "Q2175194", "wikipedia": "de:Ruine Alt-W\u00e4denswil"}}, {"type": "node", "id": 281744674, "lat": 47.0032475, "lon": 9.5652261, "tags": {"access": "private", "castle_type": "defensive", "historic": "castle", "historic:civilization": "medieval", "name": "Neu-Aspermont", "ruins": "yes", "tourism": "attraction", "website": "http://www.bv-neuaspermont.ch/", "wikidata": "Q1013226", "wikipedia": "de:Burg Neu-Aspermont"}}, {"type": "node", "id": 286986621, "lat": 47.3850013, "lon": 7.5383324, "tags": {"alt_name": "Burg Neu-Thierstein", "castle_type": "defensive", "historic": "castle", "name": "Schloss Thierstein", "ruins": "yes", "wikidata": "Q1013243", "wikipedia": "de:Burg Neu-Thierstein"}}, {"type": "node", "id": 295433236, "lat": 47.5763875, "lon": 9.1086601, "tags": {"access": "private", "castle_type": "stately", "historic": "castle", "historic:civilization": "medieval", "name": "Schloss Weinfelden", "wikidata": "Q16867546", "wikimedia_commons": "Category:Schloss Weinfelden", "wikipedia": "de:Schloss Weinfelden"}}, {"type": "node", "id": 297007116, "lat": 47.6801789, "lon": 8.8380794, "tags": {"castle_type": "defensive", "historic": "castle", "name": "Ruine Wolkenstein", "name:gsw": "Wulchestaa", "ruins": "yes", "wikidata": "Q2175501", "wikipedia": "de:Ruine Wolkenstein (Hemishofen)"}}, {"type": "node", "id": 313192014, "lat": 47.4304134, "lon": 8.9504574, "tags": {"access": "yes", "castle_type": "defensive", "description": "Mauerspuren eines Turmes. Ehemaliges St\u00e4dtchen (ohne sichtbare Mauern) als Zentrum f\u00fcr das Tannegger Amt erbaut. Burg um 1240 von Bischof von Konstanz erworben. 1407 durch die Appenzeller zerst\u00f6rt. (Quelle: Burgenverein.ch)", "historic": "castle", "historic:civilization": "medieval", "name": "Ruine Tannegg", "ruins": "yes", "wikidata": "Q29525893", "wikipedia": "de:Ruine Tannegg"}}, {"type": "node", "id": 316680550, "lat": 47.4999102, "lon": 8.6880847, "tags": {"castle_type": "defensive", "ele": "541", "historic": "castle", "name": "Alt W\u00fclflingen", "ruins": "yes", "wikidata": "Q1015238", "wikipedia": "de:Burgruine Alt-W\u00fclflingen"}}, {"type": "node", "id": 377859248, "lat": 47.4642232, "lon": 7.5692255, "tags": {"access": "yes", "alt_name": "Vorder-Schalberg", "castle_type": "defensive", "historic": "castle", "historic:civilization": "medieval", "name": "Ruine Engenstein", "ruins": "yes", "wikidata": "Q1576670", "wikipedia": "de:Ruine Engenstein"}}, {"type": "node", "id": 381006614, "lat": 47.1438249, "lon": 9.0532095, "tags": {"access": "yes", "alt_name": "Burgruine Unter-Windegg", "castle_type": "defensive", "description": "Kyburger Lehen der Herren v. Windegg, 1265 habsburgischer Vogteisitz f\u00fcr das Glarnerland, 1359/1384 unter Vogt Eglolf v. Ems neu befestigt, 1406 pfandweise an die Grafen v. Toggenburg, nach 1486 aufgelassen. Sondierung 1953. (Quelle: Burgenverein.ch)", "historic": "castle", "historic:civilization": "medieval", "name": "Burgruine Niederwindegg", "ruins": "yes", "wikidata": "Q1013327", "wikipedia": "de:Burg Niederwindegg"}}, {"type": "node", "id": 381712660, "lat": 46.6248398, "lon": 6.9941737, "tags": {"castle_type": "stately", "historic": "castle", "name": "Ch\u00e2teau de Vaulruz", "source": "survey", "tourism": "attraction", "website": "https://www.chateau-vaulruz.ch/", "wikidata": "Q29698908"}}, {"type": "node", "id": 387904945, "lat": 47.5049801, "lon": 8.186316, "tags": {"access": "yes", "castle_type": "defensive", "description": "Fundamentreste des Wohnturmes und der Bauten, Abschnittsgraben. Erbaut im 11. Jh. als Sitz habsburgischen Ministerialen, im 13. Jh. nach Brand Wiederaufbau begonnen aber nicht mehr vollendet. 1997 konserviert. (Quelle: Burgenverein.ch)", "historic": "castle", "historic:civilization": "medieval", "name": "Ruine Iberg", "ruins": "yes", "wheelchair": "no", "wikidata": "Q687225", "wikipedia": "de:Ruine_Iberg"}}, {"type": "node", "id": 388514497, "lat": 47.2333206, "lon": 8.9625095, "tags": {"castle_type": "defensive", "historic": "castle", "name": "Ruine Uznaberg", "ruins": "yes", "wikidata": "Q1441479", "wikipedia": "de:Ruine Uznaberg"}}, {"type": "node", "id": 408806844, "lat": 47.0499734, "lon": 9.4377004, "tags": {"addr:city": "Sargans", "addr:postcode": "7320", "castle_type": "defensive", "historic": "castle", "historic:civilization": "medieval", "name": "Schloss Sargans", "website": "https://www.schlosssargans.ch/", "wikidata": "Q1604828", "wikipedia": "de:Schloss Sargans"}}, {"type": "node", "id": 409181646, "lat": 47.3906954, "lon": 7.9346945, "tags": {"castle_type": "stately", "historic": "castle", "historic:civilization": "medieval", "name": "Schloss Wartenfels", "website": "https://www.wartenfels.ch/", "wikidata": "Q20012602", "wikipedia": "de:Schloss Wartenfels (Lostorf)"}}, {"type": "node", "id": 413673790, "lat": 47.4899329, "lon": 9.3222855, "tags": {"access": "yes", "alt_name": "Ruine Rabenstein", "castle_type": "defensive", "historic": "castle", "historic:civilization": "medieval", "name": "Ruine Alt-Ramschwag", "ruins": "yes", "wikidata": "Q29786484"}}, {"type": "node", "id": 419318391, "lat": 46.6700969, "lon": 7.832318, "tags": {"access": "yes", "castle_type": "defensive", "historic": "castle", "historic:civilization": "medieval", "name": "Ruine Weissenau", "ruins": "yes", "tourism": "attraction", "wikidata": "Q2175480", "wikipedia": "de:Ruine Weissenau"}}, {"type": "node", "id": 427703390, "lat": 47.2556033, "lon": 7.5551259, "tags": {"castle_type": "defensive", "historic": "castle", "historic:civilization": "medieval", "name": "Ruine Balm", "ruins": "yes", "wikidata": "Q1624444", "wikipedia": "de:Ruine Balm"}}, {"type": "node", "id": 429361921, "lat": 46.4329106, "lon": 6.2239227, "tags": {"historic": "castle", "name": "Genolier Castle ( earth mound )", "wikidata": "Q67771693"}}, {"type": "node", "id": 430049760, "lat": 46.8845717, "lon": 9.5265368, "tags": {"access": "yes", "alt_name": "Katzenburg", "castle_type": "defensive", "historic": "castle", "historic:civilization": "medieval", "name": "Ruine Lichtenstein", "ruins": "yes", "tourism": "attraction", "wikidata": "Q1012938", "wikipedia": "de:Burg Lichtenstein (Haldenstein)"}}, {"type": "node", "id": 430148697, "lat": 45.9258981, "lon": 8.9138059, "tags": {"access": "yes", "addr:housenumber": "27", "addr:street": "Strada al Castel", "castle_type": "defensive", "email": "info@castellodimorcote.ch", "historic": "castle", "historic:civilization": "medieval", "name": "Castello di Morcote", "name:de": "Burg Morcote", "phone": "+41 91 996 12 30", "ruins": "yes", "start_date": "1100", "tourism": "attraction", "website": "http://www.castellodimorcote.ch/", "wikidata": "Q21100352", "wikipedia": "it:Castello di Morcote"}}, {"type": "node", "id": 430272457, "lat": 46.3801829, "lon": 9.2328264, "tags": {"castle_type": "fortress", "ele": "753", "historic": "castle", "name": "Castello di Mesocco", "ruins": "yes", "website": "http://www.castellomesocco.ch", "wikidata": "Q474938", "wikipedia": "de:Castello di Mesocco"}}, {"type": "node", "id": 432633740, "lat": 47.4021706, "lon": 8.4221317, "tags": {"castle_type": "defensive", "historic": "castle", "name": "Ruine Glanzenberg", "ruins": "yes", "wikidata": "Q1404210", "wikipedia": "de:Ruine_Glanzenberg"}}, {"type": "node", "id": 444011388, "lat": 47.602131, "lon": 9.0780434, "tags": {"access": "private", "castle_type": "stately", "description": "Erbaut im 16. Jh. f\u00fcr Leonhard Zollikofer anstelle der um 1200 errichteten Burg der Herren v. Klingen; von der mittelalterlichen Burg nur noch Halsgraben erkennbar. (Quelle: Burgenverein.ch)", "historic": "castle", "historic:civilization": "medieval", "name": "Schloss Altenklingen", "wheelchair": "limited", "wikidata": "Q685343", "wikipedia": "de:Schloss Altenklingen"}}, {"type": "node", "id": 445356014, "lat": 46.8807123, "lon": 9.5720838, "tags": {"castle_type": "defensive", "historic": "castle", "name": "Ruine Ober-Ruchenberg", "ruins": "yes", "tourism": "viewpoint", "wikidata": "Q1013367", "wikipedia": "de:Burg_Ober-Ruchenberg"}}, {"type": "node", "id": 461144261, "lat": 46.6203651, "lon": 6.8228129, "tags": {"historic": "castle", "name": "Ch\u00e2teau de Rue", "wikidata": "Q2970455"}}, {"type": "node", "id": 469281641, "lat": 47.6518137, "lon": 8.506737, "tags": {"castle_type": "defensive", "ele": "586", "historic": "castle", "name": "Ruine Radegg", "ruins": "yes", "wikidata": "Q2175385", "wikipedia": "de:Ruine Radegg"}}, {"type": "node", "id": 491527188, "lat": 46.908318, "lon": 6.7857559, "tags": {"castle_type": "stately", "historic": "castle", "name": "Ch\u00e2teau de Gorgier", "wikidata": "Q5586285", "wikipedia": "en:Gorgier Castle"}}, {"type": "node", "id": 495077298, "lat": 46.6533468, "lon": 7.8644699, "tags": {"castle_type": "defensive", "castle_type:de": "burgruine", "historic": "castle", "name": "Ruine Rotenfluh", "ruins": "yes", "tourism": "attraction", "wikidata": "Q67772034"}}, {"type": "node", "id": 513751098, "lat": 47.3668948, "lon": 8.8329079, "tags": {"access": "yes", "castle_type": "defensive", "description": "Ehemalige Burg der Ritter v. Werdegg, 1383 Besitz der Herren v. Breitenlandenberg, sp\u00e4ter der Herren v. Hinwil, 1444 von den Eidgenossen zerst\u00f6rt. 1892, 1902 Ausgrabungen. (Quelle: Burgenverein.ch)", "ele": "705", "historic": "castle", "historic:civilization": "medieval", "name": "Burgstelle Werdegg", "site_type": "fortification", "start_date": "C13", "wikidata": "Q102884812", "wikipedia": "de:Burg Werdegg"}}, {"type": "node", "id": 552402325, "lat": 46.7327103, "lon": 7.6740598, "tags": {"addr:full": "Ruine Alt-Oberhofen, 3653 Oberhofen am Thunersee", "alt_name": "Burg Alt-Oberhofen", "castle_type": "defensive", "ele": "677", "historic": "castle", "image": "https://upload.wikimedia.org/wikipedia/commons/thumb/0/0a/Burg_Balm_Burghuegel_Oberhofen_am_Thunersee.jpg/800px-Burg_Balm_Burghuegel_Oberhofen_am_Thunersee.jpg", "name": "Ruine Alt Oberhofen", "ruins": "yes", "wikidata": "Q1010722", "wikimedia_commons": "Category:Burgruine Alt-Oberhofen", "wikipedia": "de:Burg Alt-Oberhofen"}}, {"type": "node", "id": 572206579, "lat": 47.1029189, "lon": 9.3320483, "tags": {"access": "yes", "castle_type": "defensive", "historic": "castle", "historic:civilization": "medieval", "name": "Burg Graepplang", "opening_hours": "24/7", "ruins": "yes", "wikidata": "Q1012088", "wikipedia": "de:Burg_Gr\u00e4pplang"}}, {"type": "node", "id": 573262035, "lat": 47.176796, "lon": 8.5571651, "tags": {"castle_type": "defensive", "historic": "castle", "name": "Wildenburg", "ruins": "yes", "wikidata": "Q1014600", "wikipedia": "de:Burg Wildenburg (Zug)"}}, {"type": "node", "id": 592526781, "lat": 47.4117152, "lon": 7.2117241, "tags": {"castle_type": "defensive", "historic": "castle", "historic:civilization": "medieval", "name": "Ch\u00e2teau de Pleujouse", "name:fr": "Ch\u00e2teau de Pleujouse", "ruins": "yes", "toilets:wheelchair": "no", "wheelchair": "no", "wikidata": "Q2970241", "wikipedia": "fr:Ch\u00e2teau de Pleujouse"}}, {"type": "node", "id": 601484095, "lat": 47.3901874, "lon": 8.366162, "tags": {"alt_name": "Burg Kindhausen", "castle_type": "defensive", "historic": "castle", "name": "Ruine Kindhausen", "ruins": "yes", "source": "knowledge", "wikidata": "Q2175329", "wikipedia": "de:Ruine Kindhausen"}}, {"type": "node", "id": 656676880, "lat": 46.8798323, "lon": 7.0382942, "tags": {"castle_type": "tower", "historic": "castle", "historic:civilization": "medieval", "name": "Tour du Vully", "ruins": "no", "wikidata": "Q29890498", "wikimedia_commons": "File:Picswiss_VD-48-42.jpg"}}, {"type": "node", "id": 699050152, "lat": 47.4247768, "lon": 8.6905463, "tags": {"access": "yes", "castle_type": "defensive", "historic": "castle", "historic:civilization": "medieval", "name": "Burgruine Moosburg", "ruins": "yes", "wikidata": "Q1421777", "wikipedia": "de:Moosburg (Effretikon)"}}, {"type": "node", "id": 727655255, "lat": 47.7514001, "lon": 8.5389006, "tags": {"castle_type": "defensive", "historic": "castle", "name": "Ruine Randenburg", "ruins": "yes", "wikidata": "Q2175392", "wikipedia": "de:Randenburg (Randen)"}}, {"type": "node", "id": 731424048, "lat": 47.566394, "lon": 8.9467757, "tags": {"castle_type": "stately", "historic": "castle", "name": "Schloss Wellenberg", "website": "http://www.schlosswellenberg.ch/", "wikidata": "Q17041680", "wikipedia": "de:Schloss Wellenberg (Frauenfeld)"}}, {"type": "node", "id": 736649042, "lat": 47.460616, "lon": 8.0519043, "tags": {"castle_type": "defensive", "ele": "577", "historic": "castle", "name": "Ruine Urgiz", "ruins": "yes", "wikidata": "Q2175475", "wikipedia": "de:Ruine_Urgiz"}}, {"type": "node", "id": 741014716, "lat": 46.1705328, "lon": 7.1824953, "tags": {"castle_type": "defensive", "historic": "castle", "name": "Tour Bayart", "ruins": "yes", "website": "https://www.saillon.ch/tourisme/histoire/tour-bayart.aspx", "wikidata": "Q29573897"}}, {"type": "node", "id": 773110627, "lat": 46.8293088, "lon": 9.3504359, "tags": {"alt_name": "Crap Sogn Parcazi", "castle_type": "defensive", "historic": "castle", "name": "Ruine Hohentrins", "nat_name": "Crap Sogn Parcazi", "ruins": "yes", "tourism": "attraction", "wikidata": "Q1138940", "wikipedia": "de:Crap Sogn Parcazi"}}, {"type": "node", "id": 775651213, "lat": 46.8455666, "lon": 9.3340819, "tags": {"access": "yes", "castle_type": "defensive", "historic": "castle", "historic:civilization": "medieval", "name": "Burgruine Belmont", "ruins": "yes", "wheelchair": "no", "wikidata": "Q1010936", "wikipedia": "de:Burg Belmont"}}, {"type": "node", "id": 775728152, "lat": 46.9129183, "lon": 9.5445252, "tags": {"access": "yes", "castle_type": "defensive", "historic": "castle", "historic:civilization": "medieval", "name": "Burg Neuburg", "ruins": "yes", "tourism": "attraction", "website": "http://www.burgenverein-untervaz.ch/", "wheelchair": "no", "wikidata": "Q1013259", "wikipedia": "de:Burg Neuburg (Untervaz)"}}, {"type": "node", "id": 775761161, "lat": 46.8804459, "lon": 9.5235064, "tags": {"addr:city": "Haldenstein", "addr:country": "CH", "addr:postcode": "7023", "alt_name": "Burg Haldenstein", "castle_type": "defensive", "heritage": "2", "heritage:operator": "babs", "historic": "castle", "image": "https://upload.wikimedia.org/wikipedia/commons/6/64/Haldenstein_Ruine.jpg", "name": "Ruine Haldenstein", "note": "KGS-Nr: Nummer des Kulturgutes, zu finden in den KGS-Listen des Bundes und der Kantone. BABS: Bundesamt f\u00fcr Bev\u00f6lkerungsschutz", "ref:kgs": "3032", "ruins": "yes", "tourism": "attraction", "wheelchair": "no", "wikidata": "Q1012170", "wikipedia": "de:Burg Haldenstein"}}, {"type": "node", "id": 823730511, "lat": 47.1156572, "lon": 8.3537825, "tags": {"access": "yes", "castle_type": "defensive", "historic": "castle", "historic:civilization": "medieval", "name": "Burgruine Alt-Eschenbach", "ruins": "yes", "wikidata": "Q29522183"}}, {"type": "node", "id": 833517119, "lat": 46.7485329, "lon": 10.0833733, "tags": {"access": "yes", "castle_type": "defensive", "historic": "castle", "historic:civilization": "medieval", "name": "Fortezza Rohan", "opening_hours": "24/7", "ruins": "yes", "wikidata": "Q1438954", "wikipedia": "de:Fortezza Rohan"}}, {"type": "node", "id": 846857999, "lat": 47.3232471, "lon": 8.193806, "tags": {"addr:city": "Seengen", "addr:postcode": "5707", "addr:street": "Boniswilerstrasse", "alt_name": "Schloss Hallwil", "castle_type": "stately", "email": "schlosshallwyl@ag.ch", "heritage": "4", "heritage:operator": "Kanton", "historic": "castle", "name": "Schloss Hallwyl", "tourism": "attraction", "website": "http://www.schlosshallwyl.ch", "wikidata": "Q870354", "wikipedia": "de:Schloss Hallwyl"}}, {"type": "node", "id": 881271198, "lat": 47.3197919, "lon": 8.2081924, "tags": {"castle_type": "stately", "historic": "castle", "name": "Schloss Brestenberg", "tourism": "attraction", "wikidata": "Q2240410", "wikipedia": "de:Schloss Brestenberg"}}, {"type": "node", "id": 886297441, "lat": 47.4969571, "lon": 7.9726707, "tags": {"alt_name": "Ruine Tierstein", "castle_type": "defensive", "historic": "castle", "name": "Burgruine Alt-Tierstein", "ruins": "yes", "wikidata": "Q1015229", "wikipedia": "de:Burgruine_Alt-Tierstein"}}, {"type": "node", "id": 886331060, "lat": 47.4911393, "lon": 7.9729429, "tags": {"access": "yes", "castle_type": "defensive", "historic": "castle", "historic:civilization": "medieval", "name": "Ruine Alt-Homberg", "ruins": "yes", "wikidata": "Q19362404", "wikipedia": "de:Ruine Alt Homberg"}}, {"type": "node", "id": 891477480, "lat": 47.6454706, "lon": 9.1330502, "tags": {"access": "private", "castle_type": "stately", "description": "Ehem. Herrensitz, erbaut 1585 f\u00fcr Konrad v. Wartenfels, unter Maximilian von Scherer 1878-94 Ausbau zur heutigen Gestalt im Stile des Historismus. Privatbesitz. (Quelle: Burgenverein.ch)", "historic": "castle", "name": "Schloss Castell", "ruins": "no", "start_date": "1725", "wheelchair": "limited", "wikidata": "Q2240512", "wikipedia": "de:Schloss Castell"}}, {"type": "node", "id": 1005690810, "lat": 47.0444747, "lon": 7.0943275, "tags": {"castle_type": "defensive", "historic": "castle", "name": "Schloss Erlach", "wikidata": "Q2240905", "wikipedia": "de:Schloss Erlach (Erlach)"}}, {"type": "node", "id": 1061568373, "lat": 47.6428823, "lon": 9.1540672, "tags": {"access": "private", "addr:city": "Kreuzlingen", "addr:country": "CH", "addr:housename": "Schloss Ebersberg", "addr:postcode": "8280", "addr:street": "Lohstrasse", "castle_type": "stately", "historic": "castle", "name": "Schloss Ebersberg", "old_name": "Ober-Girsberg", "wikidata": "Q15127608", "wikipedia": "de:Schloss Ebersberg (Thurgau)"}}, {"type": "node", "id": 1061568374, "lat": 47.6440755, "lon": 9.1590733, "tags": {"castle_type": "stately", "historic": "castle", "historic:civilization": "medieval", "name": "Schloss Bernegg", "wheelchair": "no", "wikidata": "Q2240274", "wikipedia": "de:Schloss Bernegg"}}, {"type": "node", "id": 1081356109, "lat": 47.3297583, "lon": 9.1127622, "tags": {"access": "yes", "castle_type": "defensive", "historic": "castle", "historic:civilization": "medieval", "name": "Burgruine Neu Toggenburg", "ruins": "yes", "wikidata": "Q29786710", "wikipedia": "de:Neu-Toggenburg"}}, {"type": "node", "id": 1102444727, "lat": 47.3307241, "lon": 8.2469096, "tags": {"access": "private", "addr:housenumber": "1", "addr:street": "Schloss-Strasse", "castle_type": "stately", "historic": "castle", "historic:civilization": "medieval", "name": "Schloss Hilfikon", "wikidata": "Q2241557", "wikipedia": "de:Schloss Hilfikon"}}, {"type": "node", "id": 1104659087, "lat": 47.3078471, "lon": 8.2588589, "tags": {"access": "yes", "castle_type": "defensive", "description": "Fliehburg. Ehemalige Wasserburg ohne Mauerspuren, im 12./13. Jh. Sitz der Kyburger Ministerialen von Strass.", "ele": "626", "fortification_type": "hill_fort", "historic": "castle", "historic:civilization": "medieval", "name": "Burgstelle Halden", "site_type": "fortification", "wikidata": "Q102892526"}}, {"type": "node", "id": 1107028549, "lat": 46.3627862, "lon": 7.0795876, "tags": {"historic": "castle", "name": "Ch\u00e2teau d'Aigremont", "ruins": "yes", "wikidata": "Q29891366", "wikipedia": "pt:Castelo de Aigremont"}}, {"type": "node", "id": 1138005376, "lat": 46.7759778, "lon": 9.1949881, "tags": {"castle_type": "defensive", "historic": "castle", "name": "Ruina de Carniec", "name:de": "Ruine Gr\u00fcneck", "name:rm": "Ruina de Carniec", "ruins": "yes", "wikidata": "Q1012097", "wikipedia": "de:Burg Gr\u00fcneck (Ilanz)"}}, {"type": "node", "id": 1240275907, "lat": 46.732921, "lon": 7.0397303, "tags": {"historic": "castle", "name": "Les Vernex I (Ch\u00e2tillon)", "ruins": "yes", "website": "http://www.dillum.ch/html/verney_vernex_autigny_fr_ch%C3%A2teaux.htm", "wikidata": "Q67772742"}}, {"type": "node", "id": 1240275933, "lat": 46.7349885, "lon": 7.0396338, "tags": {"historic": "castle", "name": "Les Vernex II (Le Ressat)", "ruins": "yes", "website": "http://www.dillum.ch/html/verney_vernex_autigny_fr_ch%C3%A2teaux.htm", "wikidata": "Q104530246"}}, {"type": "node", "id": 1240280867, "lat": 46.8322285, "lon": 7.1561706, "tags": {"historic": "castle", "name": "R\u00e4sch", "ruins": "yes", "website": "http://www.dillum.ch/html/raesch_duedingen_fr_kastell.htm", "wikidata": "Q67772049"}}, {"type": "node", "id": 1256452145, "lat": 47.4863345, "lon": 8.4283522, "tags": {"castle_type": "defensive", "historic": "castle", "name": "Ruine S\u00fcnikon", "ruins": "yes", "wikidata": "Q1801797", "wikipedia": "de:Ruine S\u00fcnikon"}}, {"type": "node", "id": 1264014165, "lat": 46.7441926, "lon": 9.4477525, "tags": {"alt_name": "Burg Canova", "castle_type": "defensive", "historic": "castle", "name": "Burg Neu-S\u00fcns", "ruins": "yes", "wikidata": "Q1013241", "wikipedia": "en:Neu-S\u00fcns Castle"}}, {"type": "node", "id": 1267864539, "lat": 47.1796638, "lon": 8.3186666, "tags": {"access": "private", "castle_type": "defensive", "description": "Ordensburg.", "historic": "castle", "historic:civilization": "medieval", "name": "Johanniterkommende Hohenrain", "wikidata": "Q31839275", "wikipedia": "de:Johanniterkommende Hohenrain"}}, {"type": "node", "id": 1277963444, "lat": 47.1172164, "lon": 7.2780782, "tags": {"access": "yes", "castle_type": "defensive", "description": "Burghuegel Pfei", "historic": "castle", "historic:civilization": "medieval", "name": "Goldhubel", "ruins": "yes", "wheelchair": "no", "wikidata": "Q2175277", "wikipedia": "de:Ruine Goldhubel"}}, {"type": "node", "id": 1313324037, "lat": 47.4817576, "lon": 8.3940916, "tags": {"castle_type": "defensive", "historic": "castle", "name": "Ruine Alt-L\u00e4gern", "ruins": "yes", "wikidata": "Q1456698", "wikipedia": "de:Ruine Alt-L\u00e4gern"}}, {"type": "node", "id": 1324387655, "lat": 47.60374, "lon": 9.1019775, "tags": {"castle_type": "defensive", "historic": "castle", "name": "Ruine Schleifenrain", "ruins": "yes", "wikidata": "Q1013889", "wikipedia": "de:Burg Schleifenrain"}}, {"type": "node", "id": 1334902352, "lat": 46.6381054, "lon": 7.6937326, "tags": {"castle_type": "defensive", "description": "Burgh\u00fcgel ohne  Mauerreste. Burg erw. 1265, um 1300 Besitz der Herren v. W\u00e4diswil, dann der v. Turn (Gestelenburg VS), 1352 von Bern erworben, kurz danach aufgelassen. Ausgrabungen 1927/28, 1941, 1991/92, 1995/96. (Quelle: Burgenverein.ch)", "historic": "castle", "name": "Burgruine M\u00fclenen", "ruins": "yes", "wikidata": "Q1015428", "wikipedia": "de:Burgruine M\u00fclenen"}}, {"type": "node", "id": 1335415120, "lat": 47.0064678, "lon": 9.5310679, "tags": {"access": "customers", "castle_type": "stately", "historic": "castle", "historic:civilization": "medieval", "name": "Schloss Maienfeld", "tourism": "attraction", "website": "https://www.schlossmaienfeld.ch", "wheelchair": "limited", "wikidata": "Q2240377"}}, {"type": "node", "id": 1349596592, "lat": 47.2433666, "lon": 7.9733398, "tags": {"castle_type": "defensive", "description": "Ordensburg der ehem. Johanniterkommende (gegr\u00fcndet 1180), Kirche (erbaut 1693) und Wohnturm 'Roten' (um 1250, Holzaufbau 1530/70). 1806 Aufl\u00f6sung der Kommende, seit 1847 Kantonale Heilp\u00e4dagogische Schule. (Quelle: Burgenverein.ch)", "historic": "castle", "historic:civilization": "medieval", "name": "Ehemalige Johanniterkommende Reiden", "website": "https://www.kommende-reiden.ch/", "wikidata": "Q63850496"}}, {"type": "node", "id": 1358175519, "lat": 47.3581745, "lon": 8.4939223, "tags": {"alt_name": "Friesenburg", "castle_type": "defensive", "ele": "658", "historic": "castle", "name": "Burgruine Friesenberg", "opening_hours": "24/7", "ruins": "yes", "wikidata": "Q1011875", "wikipedia": "de:Burg Friesenberg (ZH)"}}, {"type": "node", "id": 1372417009, "lat": 47.6483034, "lon": 8.9399032, "tags": {"access": "yes", "castle_type": "defensive", "description": "Erbaut nach 1250 von Freiherr Ulrich III. v. Altenklingen, seit 1319 als Lehensgut der Abtei SG in wechselndem Besitz, 1690 vom Kloster Rheinau erworben, um 1745 abgebrochen. (Quelle: Burgenverein.ch)", "historic": "castle", "historic:civilization": "medieval", "name": "Ruine Neuburg", "ruins": "yes", "wikidata": "Q1979319", "wikipedia": "de:Neuburg (Mammern)"}}, {"type": "node", "id": 1403655618, "lat": 46.2306069, "lon": 7.3346387, "tags": {"castle_type": "defensive", "historic": "castle", "name": "Ch\u00e2teau de Montorge", "ruins": "yes", "wikidata": "Q29928365", "wikipedia": "fr:Ch\u00e2teau de Montorge"}}, {"type": "node", "id": 1420158205, "lat": 47.2815921, "lon": 7.9952326, "tags": {"access": "yes", "castle_type": "defensive", "description": "Ehem. Burg der Herren v. Bottenstein, erw. 1255, 1483 durch Kauf an Zofingen, im 16. Jh. zerfallen, um 1830 letzte Reste abgetragen. Ruine 1949 ausgegraben und konserviert, restauriert 1990. (Quelle: Burgenverein)", "historic": "castle", "historic:civilization": "medieval", "name": "Burgruine Bottenstein", "ruins": "yes", "wikidata": "Q67772053"}}, {"type": "node", "id": 1481493390, "lat": 47.4633841, "lon": 7.6137983, "tags": {"alt_name": "Aeschburg", "castle_type": "defensive", "historic": "castle", "name": "Ruine B\u00e4renfels", "ruins": "yes", "wikidata": "Q1011258", "wikipedia": "de:Burg_B\u00e4renfels_(Duggingen)"}}, {"type": "node", "id": 1500548359, "lat": 46.7210795, "lon": 9.4450573, "tags": {"access": "no", "castle_type": "defensive", "historic": "castle", "historic:civilization": "medieval", "name": "Unteres Schloss", "wikidata": "Q866258", "wikipedia": "de:Bisch\u00f6fliches Schloss F\u00fcrstenau"}}, {"type": "node", "id": 1500554009, "lat": 46.7212551, "lon": 9.4462777, "tags": {"access": "customers", "alt_name": "Oberes Schloss", "castle_type": "stately", "historic": "castle", "name": "Schloss Schauenstein", "wikidata": "Q1276044", "wikipedia": "de:Schloss_Schauenstein"}}, {"type": "node", "id": 1511935448, "lat": 46.7065858, "lon": 9.4601798, "tags": {"castle_type": "defensive", "historic": "castle", "name": "Schloss Baldenstein", "ruins": "no", "wikidata": "Q2240157", "wikipedia": "de:Schloss_Baldenstein"}}, {"type": "node", "id": 1521546163, "lat": 47.3659388, "lon": 7.0567095, "tags": {"castle_type": "stately", "historic": "castle", "name": "Ch\u00e2teau de Montvoie", "name:de": "Schloss Montvoie", "name:en": "Montvoie Castle", "ruins": "yes", "wikidata": "Q6906665"}}, {"type": "node", "id": 1538171808, "lat": 47.555201, "lon": 8.8968712, "tags": {"castle_type": "stately", "historic": "castle", "historic:civilization": "medieval", "name": "Schloss Frauenfeld", "wheelchair": "yes", "wikidata": "Q5493931", "wikimedia_commons": "Category:Schloss_Frauenfeld", "wikipedia": "de:Schloss Frauenfeld"}}, {"type": "node", "id": 1541131042, "lat": 46.7563404, "lon": 9.0128558, "tags": {"alt_name": "Ruina Casti", "castle_type": "defensive", "designation": "Casti da Salons", "historic": "castle", "name": "Casti da Salons", "wikidata": "Q1013807", "wikipedia": "de:Burg_Salons"}}, {"type": "node", "id": 1563004916, "lat": 47.4286972, "lon": 8.1574731, "tags": {"castle_type": "defensive", "historic": "castle", "name": "Schloss Wildenstein", "website": "https://www.schloss-wildenstein.ch/", "wikidata": "Q971167", "wikipedia": "de:Schloss Wildenstein (Veltheim)"}}, {"type": "node", "id": 1573128624, "lat": 46.6850444, "lon": 9.4276566, "tags": {"access": "yes", "castle_type": "defensive", "historic": "castle", "historic:civilization": "medieval", "name": "Burg Obertagstein", "ruins": "yes", "wikidata": "Q1013390", "wikipedia": "de:Burg_Obertagstein"}}, {"type": "node", "id": 1577255389, "lat": 46.7804941, "lon": 9.1384481, "tags": {"castle_type": "defensive", "historic": "castle", "name": "J\u00f6rgenberg", "ruins": "yes", "tourism": "attraction", "wikidata": "Q682756", "wikipedia": "de:Burg J\u00f6rgenberg (Waltensburg)"}}, {"type": "node", "id": 1577255390, "lat": 46.7699413, "lon": 9.1016343, "tags": {"access": "yes", "castle_type": "defensive", "historic": "castle", "historic:civilization": "medieval", "name": "Burg Kropfenstein", "ruins": "yes", "tourism": "attraction", "wikidata": "Q664292", "wikipedia": "de:Burg Kropfenstein"}}, {"type": "node", "id": 1600999161, "lat": 46.78814, "lon": 9.2222207, "tags": {"castle_type": "defensive", "historic": "castle", "name": "Burg L\u00f6wenberg", "ruins": "yes", "source": "Wikipedia", "wikidata": "Q1013043", "wikipedia": "de:Burg_L\u00f6wenberg_(Graub\u00fcnden)"}}, {"type": "node", "id": 1664645003, "lat": 46.9889903, "lon": 6.8903922, "tags": {"castle_type": "stately", "historic": "castle", "name": "Ch\u00e2teau de Peseux", "wikidata": "Q29786042"}}, {"type": "node", "id": 1673982267, "lat": 47.5854754, "lon": 8.300286, "tags": {"access": "yes", "castle_type": "castrum", "historic": "castle", "historic:civilization": "ancient_roman", "name": "R\u00f6misches Kastell Tenedo", "ruins": "yes", "wikidata": "Q25388900", "wikipedia": "de:R\u00f6misches Milit\u00e4rlager Zurzach"}}, {"type": "node", "id": 1722230355, "lat": 47.4945364, "lon": 9.4172886, "tags": {"access": "private", "alt_name": "Schloss Hahnberg", "castle_type": "stately", "description": "Gemauerter 3-geschossiger Giebelbau mit Treppenturm, Eckquaderbemalung 1996 rekonstruiert; 1626 erbaut f\u00fcr die Familie Zollikofer, umgebaut um 1770 und 1920. (Quelle: Burgenverein.ch)", "historic": "castle", "historic:civilization": "medieval", "name": "Schloss Grosser Hahnberg", "note": "Garten ist t\u00e4glich \u00f6ffentlich zug\u00e4nglich.", "wikidata": "Q29786390"}}, {"type": "node", "id": 1724496255, "lat": 47.4869221, "lon": 9.4197096, "tags": {"access": "private", "addr:city": "Berg", "addr:postcode": "9305", "castle_type": "stately", "description": "3-geschossiger Bau mit Mansarddach und Dachreiter. Erbaut um 1564 f\u00fcr Leonhard Zollikofer (1529-87). 1760-62 umgebaut. Heute Privatbesitz.", "historic": "castle", "historic:civilization": "medieval", "name": "Schloss Pfauenmoos", "wikidata": "Q29786391"}}, {"type": "node", "id": 1739971434, "lat": 47.4947386, "lon": 7.6291674, "tags": {"castle_type": "defensive", "historic": "castle", "name": "Ruine Mittlere Birseck", "ruins": "yes", "wikidata": "Q67772067"}}, {"type": "node", "id": 1773939767, "lat": 47.5454528, "lon": 9.2368986, "tags": {"addr:city": "Erlen", "addr:country": "CH", "addr:housenumber": "4b", "addr:postcode": "8586", "addr:street": "Schlossstrasse", "amenity": "social_facility", "castle_type": "medieval", "email": "info@aph-eppishausen.ch", "fax": "+41 71 648 16 35", "historic": "castle", "name": "Altersheim Schloss Eppishausen", "phone": "+41 71 648 12 12", "social_facility": "group_home", "social_facility:for": "senior", "website": "https://www.aph-eppishausen.ch/", "wikidata": "Q1423653", "wikipedia": "de:Schloss Eppishausen"}}, {"type": "node", "id": 1777404856, "lat": 47.7211381, "lon": 8.5342226, "tags": {"castle_type": "defensive", "ele": "790", "historic": "castle", "name": "Ruine Hartenkirch", "ruins": "yes", "wikidata": "Q1704025", "wikipedia": "de:Ruine_Hartenkirch"}}, {"type": "node", "id": 1814162035, "lat": 47.3271799, "lon": 9.5540441, "tags": {"access": "yes", "castle_type": "defensive", "historic": "castle", "historic:civilization": "medieval", "name": "Burgruine Wichenstein", "opening_hours": "24/7", "ruins": "yes", "tourism": "attraction", "wheelchair": "no", "wikidata": "Q7998102"}}, {"type": "node", "id": 1817826516, "lat": 47.5123412, "lon": 8.2342157, "tags": {"access": "yes", "castle_type": "defensive", "historic": "castle", "historic:civilization": "medieval", "name": "Ruine Freudenau", "ruins": "yes", "wikidata": "Q2175272", "wikipedia": "de:Ruine Freudenau"}}, {"type": "node", "id": 1843010139, "lat": 46.9044192, "lon": 7.7226838, "tags": {"addr:full": "Altschloss, 3543 Signau", "alt_name": "Burg Alt-Signau", "castle_type": "defensive", "heritage": "3", "heritage:operator": "babs", "historic": "castle", "image": "https://upload.wikimedia.org/wikipedia/commons/thumb/0/05/Ruine_Alt-Signau_1.jpg/800px-Ruine_Alt-Signau_1.jpg", "name": "Ruine Alt-Signau", "note": "KGS-Nr: Nummer des Kulturgutes, zu finden in den KGS-Listen des Bundes und der Kantone. BABS: Bundesamt f\u00fcr Bev\u00f6lkerungsschutz. - Burgruine hat Adresse Signau, liegt aber auf Gemeindegebiet Bowil.", "ref:kgs": "805", "ruins": "yes", "source": "gps", "wikidata": "Q2175178", "wikimedia_commons": "Category:Ruine Alt-Signau", "wikipedia": "de:Ruine_Alt-Signau"}}, {"type": "node", "id": 1851215862, "lat": 47.2652847, "lon": 7.9707163, "tags": {"access": "private", "alt_name": "Schloss Wikon", "castle_type": "stately", "description": "Burg erbaut im 12./13. Jh. als Sitz der Edlen v. B\u00fcttikon, 1373 in H\u00e4nden der Grafen v. Nidau, 1409 der Grafen v. Thierstein, 1476 Verkauf an Luzern, bis 1798 Landvogteisitz, dann durch Brand zerst\u00f6rt. Privatbesitz. (Quelle: Burgenverein.ch)", "historic": "castle", "historic:civilization": "medieval", "name": "Schloss Marienburg", "tourism": "attraction", "website": "http://www.kloster-wikon.ch/schloss-wikon.html", "wikidata": "Q29785849"}}, {"type": "node", "id": 1862065036, "lat": 47.556292, "lon": 8.5740834, "tags": {"access": "yes", "castle_type": "defensive", "description": "Nord\u00f6stlich \u00fcber Teufen markanter, allseits steil abfallender Burgh\u00fcgel mit schwachen Mauerresten eines Turmes und der Umfassungsmauer. Sitz der Freiherren v. Teufen, erwiesen 1285. 1334 zerst\u00f6rt. (Quelle: Burgenverein.ch)", "ele": "568", "end_date": "mid C14", "historic": "castle", "historic:civilization": "medieval", "name": "Burgstelle Hohenteufen", "name:gsw": "Hohen-T\u00fcfen", "ruins": "yes", "start_date": "late C13", "wikidata": "Q29932628", "wikipedia": "de:Burgstelle Hohenteufen"}}, {"type": "node", "id": 1876085057, "lat": 46.3008051, "lon": 6.2455644, "tags": {"access": "yes", "castle_type": "tower", "historic": "castle", "historic:civilization": "medieval", "name": "La Tour d'Hermance", "ruins": "yes", "start_date": "1247", "wikidata": "Q30739694", "wikipedia": "fr:Ch\u00e2teau d'Hermance"}}, {"type": "node", "id": 1888132778, "lat": 46.5571777, "lon": 9.334466, "tags": {"castle_type": "defensive", "historic": "castle", "name": "Burg Spl\u00fcgen", "ruins": "yes", "wikidata": "Q1014040", "wikipedia": "de:Burg_Spl\u00fcgen"}}, {"type": "node", "id": 1912799568, "lat": 46.8086594, "lon": 7.4717546, "tags": {"historic": "castle", "name": "Schloss Riggisberg", "wikidata": "Q1537155"}}, {"type": "node", "id": 1946695311, "lat": 46.9346768, "lon": 7.5152435, "tags": {"castle_type": "stately", "historic": "castle", "historic:civilization": "medieval", "name": "Schloss G\u00fcmligen", "wikidata": "Q2241361", "wikipedia": "de:Schloss G\u00fcmligen"}}, {"type": "node", "id": 1946698494, "lat": 46.930881, "lon": 7.4880763, "tags": {"addr:city": "Muri bei Bern", "addr:country": "CH", "addr:housename": "Schloss Muri bei Bern", "addr:housenumber": "95", "addr:postcode": "3074", "addr:street": "Thunstrasse", "castle_type": "stately", "historic": "castle", "name": "Schloss Muri bei Bern", "wikidata": "Q2242487", "wikipedia": "de:Schloss Muri"}}, {"type": "node", "id": 1950345330, "lat": 46.6978168, "lon": 10.1093102, "tags": {"alt_name": "alter Zollturm", "castle_type": "defensive", "historic": "castle", "name": "La Serra", "ruins": "yes", "wikidata": "Q1799141"}}, {"type": "node", "id": 1960962516, "lat": 46.7127642, "lon": 7.9160963, "tags": {"access": "yes", "castle_type": "defensive", "historic": "castle", "historic:civilization": "medieval", "name": "Ruine Schadburg", "ruins": "yes", "wikidata": "Q1335263", "wikipedia": "de:Ruine Schadburg"}}, {"type": "node", "id": 1984132510, "lat": 47.4785385, "lon": 7.5048915, "tags": {"castle_type": "defensive", "historic": "castle", "name": "Sternenberg", "ruins": "yes", "wikidata": "Q2175444", "wikipedia": "de:Ruine Sternenberg"}}, {"type": "node", "id": 2007067214, "lat": 46.9401387, "lon": 9.5878969, "tags": {"castle_type": "defensive", "historic": "castle", "name": "Ruine Falkenstein", "ruins": "yes", "wikidata": "Q1011680", "wikipedia": "de:Burg Falkenstein (Igis)"}}, {"type": "node", "id": 2063816822, "lat": 46.8224936, "lon": 7.1748546, "tags": {"building": "ruins", "castle_type": "defensive", "designation": "Ruine Burg Chastels", "historic": "castle", "name": "Burgruine Chastels", "ruins": "yes", "source": "http://de.wikipedia.org/wiki/D%C3%BCdingen#Sehensw.C3.BCrdigkeiten", "wikidata": "Q67772071"}}, {"type": "node", "id": 2097929678, "lat": 47.5941508, "lon": 8.9590599, "tags": {"alt_name": "Kastell Pfyn", "castle_type": "castrum", "description": "Erbaut  E.3. Jh. unter Diokletian. Teile der Kastellmauern an der N-Seite sichtbar, Kastellmauern im Mittelalter als Ringmauer um den Ortskern wiederhergestellt. (Quelle: Burgenverein.ch)", "historic": "castle", "historic:civilization": "ancient_roman", "name": "Kastell Ad Fines", "ruins": "yes", "site_type": "fortification", "wikidata": "Q1124663", "wikipedia": "de:Kastell Pfyn"}}, {"type": "node", "id": 2117906320, "lat": 47.4365097, "lon": 9.3397118, "tags": {"access": "yes", "castle_type": "defensive", "description": "Burgstelle mit Burgh\u00fcgel und Halsgraben, ohne Mauerspuren. Ehem. Burg der Herren v. Meldegg (erwiesen 1312/47). (Quelle: Burgenverein.ch)", "historic": "castle", "historic:civilization": "medieval", "name": "Burgstelle Alt Meldegg", "ruins": "yes", "wikidata": "Q67772076"}}, {"type": "node", "id": 2123811689, "lat": 46.6872481, "lon": 7.8637349, "tags": {"castle_type": "stately", "historic": "castle", "historic:civilization": "medieval", "name": "Schloss Interlaken", "name:zh": "\u56e0\u7279\u62c9\u80af\u57ce\u5821", "wikidata": "Q2241722", "wikipedia": "de:Schloss Interlaken"}}, {"type": "node", "id": 2194597818, "lat": 47.280259, "lon": 7.3730593, "tags": {"addr:city": "Moutier", "castle_type": "stately", "historic": "castle", "historic:civilization": "medieval", "name": "Ch\u00e2teau du Moutier", "wikidata": "Q2242490", "wikipedia": "de:Schloss Moutier"}}, {"type": "node", "id": 2260257903, "lat": 47.3497736, "lon": 9.0882944, "tags": {"access": "yes", "castle_type": "defensive", "description": "Erwiesen 1270 als Sitz der Herren v. R\u00fcdberg, 1272 an die Grafen v. Werdenberg, 1340 an die Grafen v. Toggenburg verpf\u00e4ndet, 1468 von der Abtei St. Gallen zur\u00fcckgekauft und aufgelassen. Ausgrabung und Konservierung 1949-54. (Quelle: Burgenverein.ch)", "historic": "castle", "historic:civilization": "medieval", "image": "https://www.wikidata.org/wiki/Q29786711#/media/File:Ruine_Ruedberg.JPG", "name": "Ruine R\u00fcdberg", "ruins": "yes", "wikidata": "Q29786711", "wikipedia": "de:Burg R\u00fcdberg"}}, {"type": "node", "id": 2269507685, "lat": 46.710674, "lon": 6.8366884, "tags": {"addr:city": "Lucens", "addr:postcode": "1522", "addr:street": "Rue du Ch\u00e2teau", "castle_type": "defensive", "historic": "castle", "historic:civilization": "medieval", "name": "Ch\u00e2teau de Lucens", "phone": "+41 21 906 80 32", "tourism": "attraction", "website": "https://www.chateaudelucens.ch/", "wikidata": "Q2969752", "wikipedia": "fr:Ch\u00e2teau de Lucens"}}, {"type": "node", "id": 2284921447, "lat": 47.4801429, "lon": 7.8171399, "tags": {"access": "yes", "castle_type": "defensive", "historic": "castle", "name": "Ruine Sissacherfluh", "ruins": "yes", "wikidata": "Q1736132", "wikipedia": "de:Ruine Sissacherfluh"}}, {"type": "node", "id": 2302886421, "lat": 46.9010786, "lon": 7.4211315, "tags": {"access": "private", "alt_name": "Burg Neu-Bubenberg", "castle_type": "defensive", "description": "Auf H\u00fcgelkuppe am Ulmizberg, s\u00fcdl. von Schliern. Konservierte Mauerreste eines rechteckigen Turmes (Mitte 13. Jh.). Ehemaliger Sitz eines Zweiges der Herren v. Bubenberg, nach 1338 aufgelassen. Privatbesitz. (Quelle: Burgenverein.ch)", "ele": "759", "historic": "castle", "historic:civilization": "medieval", "image": "https://upload.wikimedia.org/wikipedia/commons/thumb/3/30/NeuBubenberg1.jpg/800px-NeuBubenberg1.jpg", "name": "Burgruine Neu-Bubenberg", "ruins": "yes", "source": "survey", "wikidata": "Q1013231", "wikipedia": "de:Burg Neu-Bubenberg"}}, {"type": "node", "id": 2330714364, "lat": 47.442601, "lon": 9.0692744, "tags": {"access": "private", "castle_type": "stately", "historic": "castle", "name": "Schloss Schwarzenbach", "wikidata": "Q1265744"}}, {"type": "node", "id": 2344764659, "lat": 47.0175088, "lon": 7.7418578, "tags": {"addr:housenumber": "8", "addr:place": "Schloss", "addr:postcode": "3456", "castle_type": "defensive", "historic": "castle", "historic:civilization": "medieval", "name": "Schloss Trachselwald", "website": "http://trachselwald-castle.ch/", "wikidata": "Q547064", "wikipedia": "de:Schloss Trachselwald"}}, {"type": "node", "id": 2346025282, "lat": 47.03208, "lon": 7.7627817, "tags": {"alt_name": "Schloss Sumiswald", "castle_type": "stately", "historic": "castle", "historic:civilization": "medieval", "image": "https://upload.wikimedia.org/wikipedia/commons/thumb/b/b1/2014-Sumiswald-Schloss.jpg/800px-2014-Sumiswald-Schloss.jpg", "name": "Schloss Spittel", "wikidata": "Q2243568", "wikimedia_commons": "Category:Schloss Spittel", "wikipedia": "de:Schloss Spittel"}}, {"type": "node", "id": 2388546710, "lat": 46.9561752, "lon": 7.8117356, "tags": {"castle_type": "defensive", "historic": "castle", "name": "Burg Spitzenberg", "ruins": "yes", "wikidata": "Q1014030", "wikipedia": "de:Burg_Spitzenberg_(BE)"}}, {"type": "node", "id": 2392400819, "lat": 47.1710903, "lon": 8.1430847, "tags": {"access": "yes", "castle_type": "defensive", "description": "L\u00e4nglich rechteckiger Burgplatz mit Resten der Umfassungsmauer am Plateaurand. Sitz der Herren v. Schenkon (1203), nach dem Sempacherkrieg 1388 zerst\u00f6rt. 1899 ausgegraben, konserviert 1992. (Quelle: Burgenverein.ch)", "historic": "castle", "historic:civilization": "medieval", "name": "Ruine Schenkon", "ruins": "yes", "start_date": "1200", "wikidata": "Q7143", "wikipedia": "de:Schenkon#Ruine_Schenkon"}}, {"type": "node", "id": 2396214157, "lat": 47.4417153, "lon": 8.1176148, "tags": {"access": "yes", "castle_type": "defensive", "description": "Ehem. Sitz der Herren v. Ruchenstein (erw. 1259-1310). Um 1642 Abbruch der Burgruine und \u00dcberbauung durch den barocken Schlossneubau von Kasteln nebenan. (Quelle: Burgenverein.ch)", "ele": "468", "historic": "castle", "historic:civilization": "medieval", "name": "Burgstelle Ruchenstein", "site_type": "fortification", "wikidata": "Q102895063"}}, {"type": "node", "id": 2430389756, "lat": 47.179052, "lon": 7.8583559, "tags": {"access": "yes", "castle_type": "defensive", "historic": "castle", "historic:civilization": "medieval", "name": "Ruine Gr\u00fcnenberg", "note": "Es gibt einen Verein, der die Burgruinen Gr\u00fcnenberg und Langenstein unterh\u00e4lt. Darum die Website gruenenberg.ch.", "ruins": "yes", "website": "https://www.gruenenberg.ch/", "wikidata": "Q1156041", "wikipedia": "de:Ruine Gr\u00fcnenberg (Melchnau)"}}, {"type": "node", "id": 2488241533, "lat": 46.9119004, "lon": 9.5716132, "tags": {"castle_type": "defensive", "historic": "castle", "name": "Ruine Alt-Aspermont", "ruins": "yes", "wikidata": "Q2175166", "wikipedia": "de:Ruine_Alt-Aspermont"}}, {"type": "node", "id": 2504217457, "lat": 47.5006219, "lon": 9.3950402, "tags": {"castle_type": "stately", "description": "Ehemaliger Sitz der Herren von Roggwil (13. Jh.), als Lehen der Abtei St. Gallen in verschiedenen H\u00e4nden bis 1806, danach Privatbesitz. Gesamtrenovation 1976--84, Aussenrestauration 1994/95. Heute Stiftung. (Quelle: Burgenverein.ch)", "historic": "castle", "historic:civilization": "medieval", "name": "Schloss Roggwil", "website": "http://www.schloss-roggwil.ch/", "wheelchair": "no", "wikidata": "Q29883259"}}, {"type": "node", "id": 2530784679, "lat": 46.9161914, "lon": 9.7554604, "tags": {"castle_type": "defensive", "historic": "castle", "name": "Burgruine Stahlegg", "ruins": "yes", "source": "local_knowledge", "wikidata": "Q1014149", "wikipedia": "de:Burg Strahlegg (Fideris)"}}, {"type": "node", "id": 2579685626, "lat": 47.3999625, "lon": 9.2168914, "tags": {"castle_type": "defensive", "historic": "castle", "name": "Burg Burgau", "ruins": "yes", "wikidata": "Q67772091"}}, {"type": "node", "id": 2596972796, "lat": 47.4285663, "lon": 9.183984, "tags": {"access": "yes", "castle_type": "defensive", "description": "Zwei Burggr\u00e4ben im N und E, Burgplatz mit Mauerresten auf zwei Terrassen. Vermutlich Stammburg der Giel, K\u00e4mmerer der Abtei St.Gallen, 1226 erwiesen, 1403 besch\u00e4digt, 1485 zerst\u00f6rt und 1732 abgebrochen. (Quelle: Burgenverein.ch)", "historic": "castle", "historic:civilization": "medieval", "name": "Burgstelle Gielen-Glattburg", "ruins": "yes", "wikidata": "Q67772095"}}, {"type": "node", "id": 2635081298, "lat": 47.404396, "lon": 9.5826215, "tags": {"castle_type": "defensive", "historic": "castle", "name": "Burgstelle Hardegg", "ruins": "yes", "wikidata": "Q67772096"}}, {"type": "node", "id": 2707031234, "lat": 47.4226336, "lon": 7.7268941, "tags": {"castle_type": "defensive", "historic": "castle", "name": "Ruine Gutenfels", "ruins": "yes", "wikidata": "Q2175280", "wikipedia": "de:Ruine Gutenfels"}}, {"type": "node", "id": 2713529662, "lat": 46.9833886, "lon": 9.6443929, "tags": {"access": "yes", "castle_type": "defensive", "description": "Ausgedehnte Burgruine. Vermutlich Kirchenkastell, im 11. Jh. durch die Grafen von Bregenz zur Burg umgebaut, im 14. Jh. in Besitz der Herren v. Aspermont, 1344 an die Grafen v. Toggenburg, Burg und Kirche im 16. Jh. aufgelassen. (Quelle: Burgenverein.ch)", "historic": "castle", "historic:civilization": "medieval", "name": "Burgruine Solavers", "ruins": "yes", "wikidata": "Q1014007", "wikipedia": "de:Burg Solavers"}}, {"type": "node", "id": 2773375107, "lat": 46.520563, "lon": 6.8483491, "tags": {"historic": "castle", "name": "Ch\u00e2teau de Bossonnens", "ruins": "yes", "website": "http://www.swisscastles.ch/Fribourg/bossonnens.html", "wikidata": "Q2968608", "wikipedia": "fr:Ch\u00e2teau de Bossonnens"}}, {"type": "node", "id": 2864969320, "lat": 47.467822, "lon": 7.5615839, "tags": {"alt_name": "Tsch\u00e4pperli", "castle_type": "defensive", "historic": "castle", "historic:civilization": "medieval", "name": "Ruine Frohberg", "ruins": "yes", "wikidata": "Q2175273", "wikipedia": "de:Ruine Frohberg"}}, {"type": "node", "id": 2898483720, "lat": 47.5609777, "lon": 8.2775807, "tags": {"castle_type": "defensive", "historic": "castle", "name": "Ruine Tegerfelden", "ruins": "yes", "wheelchair": "no", "wikidata": "Q2175459", "wikipedia": "de:Ruine Tegerfelden"}}, {"type": "node", "id": 3005388608, "lat": 46.9710582, "lon": 7.732548, "tags": {"access": "yes", "barbecue_grill": "yes", "castle_type": "defensive", "ele": "790", "hiking": "yes", "historic": "castle", "historic:civilization": "medieval", "name": "Ruine Wartenstein", "ruins": "yes", "wikidata": "Q1723316", "wikipedia": "de:Ruine Wartenstein"}}, {"type": "node", "id": 3027592069, "lat": 46.3133123, "lon": 7.7830169, "tags": {"access": "yes", "castle_type": "defensive", "historic": "castle", "historic:civilization": "medieval", "name": "Ruine Gestelnburg", "ruins": "yes", "wikidata": "Q29573881"}}, {"type": "node", "id": 3100389901, "lat": 47.4677267, "lon": 7.5306351, "tags": {"access": "yes", "castle_type": "hill_fort", "historic": "castle", "name": "Burgruine F\u00fcrstenstein", "ruins": "yes", "wikidata": "Q2175269", "wikipedia": "de:Ruine F\u00fcrstenstein"}}, {"type": "node", "id": 3149225727, "lat": 46.0570748, "lon": 6.9562823, "tags": {"castle_type": "fortress", "historic": "castle", "name": "Fort Militaire Ch\u00e2telard", "wikidata": "Q67772119"}}, {"type": "node", "id": 3256406527, "lat": 46.1929023, "lon": 9.0217456, "tags": {"castle_type": "defensive", "heritage": "1", "heritage:operator": "whc", "historic": "castle", "historic:civilization": "medieval", "name": "Castelgrande", "name:ru": "\u041a\u0430\u0441\u0442\u0435\u043b\u044c\u0433\u0440\u0430\u043d\u0434\u0435", "ref:whc": "884-001", "tourism": "attraction", "website": "https://www.ticino.ch/de/commons/details/Castelgrande/2793.html", "whc:inscription_date": "2000", "wikidata": "Q664376", "wikipedia": "it:Castelgrande (castello)"}}, {"type": "node", "id": 3256443027, "lat": 46.1912869, "lon": 9.0265655, "tags": {"castle_type": "defensive", "heritage": "1", "heritage:operator": "whc", "historic": "castle", "name": "Castello di Montebello", "name:fr": "Ch\u00e2teau de Montebello", "name:it": "Castello di Montebello", "name:ru": "\u041c\u043e\u043d\u0442\u0435\u0431\u0435\u043b\u043b\u043e", "opening_hours": "Apr-Nov: Mo-Su 10:00-18:00", "ref:whc": "884-002", "source": "website and survey", "tourism": "attraction", "website": "https://www.ticino.ch/de/commons/details/Burg-Montebello/2796.html", "whc:inscription_date": "2000", "wikidata": "Q664346", "wikipedia": "it:Montebello (castello)"}}, {"type": "node", "id": 3256443038, "lat": 46.1881229, "lon": 9.030132, "tags": {"castle_type": "defensive", "heritage": "1", "heritage:operator": "whc", "historic": "castle", "historic:civilization": "medieval", "name": "Castello di Sasso Corbaro", "name:fr": "Ch\u00e2teau de Sasso Corbaro", "name:it": "Castello di Sasso Corbaro", "name:ru": "\u0421\u0430\u0441\u0441\u043e-\u041a\u043e\u0440\u0431\u0430\u0440\u043e", "opening_hours": "Apr-Nov: Mo-Su 10:00-18:00", "ref:whc": "884-003", "source": "website and survey", "tourism": "attraction", "website": "https://www.bellinzonese-altoticino.ch/it/commons/details/Castello-di-Sasso-Corbaro/2797.html", "whc:inscription_date": "2000", "wheelchair": "limited", "wikidata": "Q663436", "wikipedia": "it:Sasso Corbaro"}}, {"type": "node", "id": 3266807170, "lat": 45.8433633, "lon": 9.0153379, "tags": {"castle_type": "defensive", "description": "Venne espugnato dai Milanesi verso il 1124 e poi prob. distrutto. In seguito venne ricostruito e nel 1350 furono eseguiti diversi lavori di ristrutturazione per ordine del vescovo Bonifazio.", "historic": "castle", "historic:civilization": "medieval", "name": "Castello di Pontegana", "ruins": "yes", "wikidata": "Q7228180", "wikipedia": "it:Castello di Pontegana"}}, {"type": "node", "id": 3410929119, "lat": 46.2616042, "lon": 7.4959256, "tags": {"access": "private", "alt_name": "Maison Siegen", "castle_type": "manor", "historic": "castle", "historic:civilization": "medieval", "name": "Chateau de R\u00e9chy", "wikidata": "Q29891977"}}, {"type": "node", "id": 3414232868, "lat": 47.183274, "lon": 7.795609, "tags": {"access": "yes", "castle_type": "hill_fort", "historic": "castle", "historic:civilization": "medieval", "name": "Gutenburg", "ruins": "yes", "start_date": "1100", "wikidata": "Q1012121", "wikipedia": "de:Burg Gutenburg (Gutenburg BE)"}}, {"type": "node", "id": 3426671299, "lat": 47.4282352, "lon": 8.858604, "tags": {"castle_type": "defensive", "historic": "castle", "name": "Ruine Breitenlandenberg", "ruins": "yes", "wikidata": "Q2175214", "wikipedia": "de:Ruine Breitenlandenberg"}}, {"type": "node", "id": 3471347453, "lat": 47.3963524, "lon": 9.2821079, "tags": {"building:condition": "completely_ruinous", "castle_type": "defensive", "historic": "castle", "name": "Ruine Rosenberg", "ruins": "yes", "wikidata": "Q2175404", "wikipedia": "de:Ruine Rosenberg"}}, {"type": "node", "id": 3477327694, "lat": 46.714815, "lon": 7.5796059, "tags": {"access": "yes", "castle_type": "defensive", "historic": "castle", "historic:civilization": "medieval", "name": "Ruine Jagdburg", "opening_hours": "24/7", "ruins": "yes", "wheelchair": "no", "wikidata": "Q2175322", "wikipedia": "de:Ruine Jagdburg"}}, {"type": "node", "id": 3517065441, "lat": 46.8746822, "lon": 7.1161206, "tags": {"access": "private", "castle_type": "stately", "historic": "castle", "name": "Chateau de Wallenried", "wikidata": "Q29689042"}}, {"type": "node", "id": 3561466727, "lat": 46.994825, "lon": 9.5700578, "tags": {"access": "yes", "castle_type": "defensive", "description": "Erbaut Ritter Ludwig v. Wynegg 1254-1257, 1270 bisch\u00f6fl. Lehen in H\u00e4nden der Freiherren v. Vaz, 1338 an Friedrich v. Toggenburg vererbt, 1548 als Ruine erw\u00e4hnt, um 1600 Andreas v. Salis ein Neubau, Ende 18. Jh. verlassen. (Quelle: Burgenverein.ch)", "historic": "castle", "historic:civilization": "medieval", "name": "Ruine Wynegg", "ruins": "yes", "wikidata": "Q1014666", "wikipedia": "de:Burg Wynegg"}}, {"type": "node", "id": 3616196589, "lat": 47.318868, "lon": 8.388813, "tags": {"castle_type": "defensive", "historic": "castle", "name": "Ruine Lunkhofen", "ruins": "yes", "wikidata": "Q29580240"}}, {"type": "node", "id": 3675580690, "lat": 47.6559494, "lon": 8.8588308, "tags": {"access": "yes", "castle_type": "castrum", "description": "Umfassungsmauer mit Polygonalt\u00fcrmen eines sp\u00e4tr\u00f6mischen Kastells. Erbaut um 294 n.Chr. unter Diokletian zum Schutz des Rhein\u00fcbergangs. 1901 Konservierung. (Quelle: Burgenverein.ch)", "historic": "castle", "historic:civilization": "ancient_roman", "name": "R\u00f6merkastell Tasgetium", "ruins": "yes", "wikidata": "Q1331160"}}, {"type": "node", "id": 3701795537, "lat": 47.39985, "lon": 9.5433332, "tags": {"castle_type": "defensive", "historic": "castle", "name": "Burg Hoch-Altst\u00e4tten", "ruins": "yes", "wikidata": "Q67772141"}}, {"type": "node", "id": 3738752742, "lat": 46.7743409, "lon": 8.6704417, "tags": {"access": "yes", "castle_type": "hill_fort", "historic": "castle", "historic:civilization": "medieval", "name": "Zwing Uri", "ruins": "yes", "start_date": "1200", "wikidata": "Q24283789", "wikipedia": "de:Zwing-Uri"}}, {"type": "node", "id": 3749433218, "lat": 46.9663686, "lon": 6.7984638, "tags": {"access": "yes", "castle_type": "defensive", "historic": "castle", "historic:civilization": "medieval", "name": "Ruines du Ch\u00e2teau de Rochefort", "ruins": "yes", "website": "http://www.chateaurochefort.ch/", "wikidata": "Q29786047", "wikipedia": "fr:Ch\u00e2teau de Rochefort (Neuch\u00e2tel)"}}, {"type": "node", "id": 3979315983, "lat": 47.4818508, "lon": 8.1940481, "tags": {"castle_type": "stately", "historic": "castle", "historic:civilization": "medieval", "name": "Altenburg", "wheelchair": "yes", "wikidata": "Q1332077", "wikipedia": "de:Schl\u00f6sschen Altenburg"}}, {"type": "node", "id": 4027345689, "lat": 46.6137871, "lon": 9.4224617, "tags": {"access": "yes", "castle_type": "defensive", "ele": "1181", "historic": "castle", "historic:civilization": "medieval", "name": "Cagliatscha", "ruins": "yes", "website": "https://pro-castellis.ch/cagliatscha-1265.shtml", "wikidata": "Q1011294", "wikipedia": "de:Burg Cagliatscha"}}, {"type": "node", "id": 4109986686, "lat": 46.8834951, "lon": 7.5168928, "tags": {"access": "yes", "castle_type": "defensive", "historic": "castle", "historic:civilization": "medieval", "name": "Burgruine Hohburg", "ruins": "yes", "tourism": "attraction", "wheelchair": "limited", "wikidata": "Q67772150", "wikipedia": "de:Ruine Hohburg"}}, {"type": "node", "id": 4172037696, "lat": 46.8001901, "lon": 7.50731, "tags": {"access": "yes", "castle_type": "defensive", "historic": "castle", "historic:civilization": "medieval", "name": "Blankenburg auf Sch\u00f6negg", "ruins": "yes", "start_date": "1000", "tourism": "attraction", "wikidata": "Q881575", "wikipedia": "de:Blankenburg auf Sch\u00f6negg"}}, {"type": "node", "id": 4230329228, "lat": 47.6232248, "lon": 8.7768077, "tags": {"access": "customers", "castle_type": "stately", "historic": "castle", "historic:civilization": "medieval", "name": "Schloss Schwandegg", "website": "https://www.schloss-schwandegg.ch/", "wikidata": "Q1325353", "wikipedia": "de:Schloss Schwandegg"}}, {"type": "node", "id": 4241151391, "lat": 46.658345, "lon": 7.4730385, "tags": {"historic": "castle", "image": "https://upload.wikimedia.org/wikipedia/commons/thumb/9/91/Ruine_Weissenburg,_S\u00fcdmauer.jpg/800px-Ruine_Weissenburg,_S\u00fcdmauer.jpg", "name": "Ruine Weissenburg", "ruins": "yes", "wikidata": "Q1231232", "wikimedia_commons": "Category:Ruine Weissenburg", "wikipedia": "de:Ruine Weissenburg"}}, {"type": "node", "id": 4368506992, "lat": 46.9442111, "lon": 7.2452416, "tags": {"addr:city": "G\u00fcmmenen", "addr:postcode": "3205", "castle_type": "defensive", "ele": "529", "historic": "castle", "name": "Burgruine G\u00fcmmenen", "ruins": "yes", "source": "Historisches Lexikon der Schweiz;http://www.hls-dhs-dss.ch/textes/d/D8330.php", "wikidata": "Q2175281", "wikipedia": "de:Ruine_G\u00fcmmenen"}}, {"type": "node", "id": 4370184084, "lat": 46.1856175, "lon": 8.0836735, "tags": {"access": "yes", "castle_type": "defensive", "historic": "castle", "historic:civilization": "medieval", "name": "Ruine Stockalperturm", "note": "Nicht verwechseln mit dem Stockalperturm in Gondo.", "ruins": "yes", "tourism": "attraction", "wikidata": "Q67914637"}}, {"type": "node", "id": 4613130734, "lat": 47.0511581, "lon": 7.064136, "tags": {"castle_type": "palace", "historic": "castle", "name": "Ch\u00e2teau du Landeron", "name:de": "Schloss Landeren", "wikidata": "Q2242107"}}, {"type": "node", "id": 4665990061, "lat": 46.5702911, "lon": 7.3794629, "tags": {"access": "yes", "alt_name": "Ruine Mannenberg", "castle_type": "defensive", "historic": "castle", "historic:civilization": "medieval", "name": "Ruine Unterer Mannenberg", "ruins": "yes", "start_date": "1200", "wikidata": "Q1700496", "wikipedia": "fr:Mannenberg"}}, {"type": "node", "id": 4686874789, "lat": 47.3976322, "lon": 8.8655403, "tags": {"access": "yes", "building:condition": "completely_ruinous", "castle_type": "defensive", "historic": "castle", "historic:civilization": "medieval", "name": "Ruine Hohenlandenberg", "ruins": "yes", "wikidata": "Q1806013", "wikipedia": "de:Ruine Hohenlandenberg"}}, {"type": "node", "id": 4703976573, "lat": 46.7680092, "lon": 9.0630958, "tags": {"castle_type": "defensive", "description": "Am alten Weg nach Waltensburg am \u00f6stl. Dorfrand auf flacher Erhebung. Fundament eines rechteckigen Turmes. Wohl Meierturm des Klosters Disentis, 1505 urk. Erw\u00e4hnung. (Quelle: Burgenverein.ch)", "historic": "castle", "historic:civilization": "medieval", "name": "Burgruine Marmarola", "ruins": "yes", "wikidata": "Q67772173"}}, {"type": "node", "id": 4774174437, "lat": 47.4772395, "lon": 9.3771638, "tags": {"castle_type": "stately", "historic": "castle", "name": "Schloss Dottenwil", "name:de": "Schloss Dottenwil", "wikidata": "Q1584097"}}, {"type": "node", "id": 4827784517, "lat": 47.4620281, "lon": 7.5722511, "tags": {"castle_type": "defensive", "historic": "castle", "historic:civilization": "medieval", "name": "Ruine M\u00fcnchsberg", "ruins": "yes", "wikidata": "Q2175360", "wikipedia": "de:Ruine M\u00fcnchsberg"}}, {"type": "node", "id": 4892181832, "lat": 46.2136793, "lon": 6.9955844, "tags": {"access": "yes", "castle_type": "fortress", "end_date": "1995", "historic": "castle", "historic:civilization": "modern", "name": "Fort du Scex", "note": "1995 deklassifiziert, seither Museum", "website": "http://www.forteresse-st-maurice.ch/deutsch/dat_d/s_d/fwkpls_d.htm", "wikidata": "Q1438881", "wikipedia": "de:Fort du Scex"}}, {"type": "node", "id": 4899080621, "lat": 46.2435297, "lon": 7.3268469, "tags": {"historic": "castle", "name": "Chateau de la Soie", "name:fr": "Chateau de la Soie", "ruins": "yes", "wikidata": "Q29927272"}}, {"type": "node", "id": 4919264894, "lat": 47.4346249, "lon": 9.4340081, "tags": {"castle_type": "defensive", "historic": "castle", "name": "Burgstelle Rappenstein", "ruins": "yes", "wikidata": "Q67772185"}}, {"type": "node", "id": 4919285922, "lat": 47.4432961, "lon": 9.4218969, "tags": {"access": "yes", "castle_type": "defensive", "description": "Burgstelle mit Halsgraben und l\u00e4nglicher Burgh\u00fcgel ohne Mauerspuren. Erwiesen 1193 als Sitz der Herren v. Falkenstein, vermutlich 1403 von Appenzell zerst\u00f6rt. (Quelle: Burgenverein.ch)", "ele": "623", "historic": "castle", "historic:civilization": "medieval", "name": "Burgstelle Falkenstein", "site_type": "fortification", "wikidata": "Q102900152"}}, {"type": "node", "id": 4958394060, "lat": 47.4646687, "lon": 7.5680513, "tags": {"castle_type": "defensive", "historic": "castle", "historic:civilization": "medieval", "name": "Ruine Schalberg", "ruins": "yes", "wikidata": "Q2175414", "wikipedia": "de:Ruine Schalberg"}}, {"type": "node", "id": 5046427190, "lat": 47.0069631, "lon": 9.0881602, "tags": {"access": "yes", "alt_name": "Burgruine Sola", "castle_type": "defensive", "description": "Erbaut vermutlich 2.H\u00e4lfte des 12. Jh., bewohnt bis 1. H\u00e4lfte 13. Jh. Keine urkundliche Erw\u00e4hnung. Nach dem Dorfbrand von Obersool 1713 als Steinbruch genutzt. 1927-29 freigelegt und konserviert. (Quelle: Burgenverein.ch)", "historic": "castle", "historic:civilization": "medieval", "name": "Burg Sola", "ruins": "yes", "website": "https://www.hvg.ch/glarner-burgenweg/1-burg-sola/", "wikidata": "Q29784380", "wikimedia_commons": "File:Ruine Sola am B\u00fcrgli im Oktober 2020.jpg"}}, {"type": "node", "id": 5100178818, "lat": 46.8832811, "lon": 9.5229142, "tags": {"addr:city": "Haldenstein", "addr:country": "CH", "addr:postcode": "7023", "alt_name": "Burg Grottenstein", "castle_type": "defensive", "heritage": "3", "heritage:operator": "babs", "historic": "castle", "image": "https://upload.wikimedia.org/wikipedia/commons/c/c2/Grottenstein_aussen.jpg", "name": "Burgruine Grottenstein", "note": "KGS-Nr: Nummer des Kulturgutes, zu finden in den KGS-Listen des Bundes und der Kantone. BABS: Bundesamt f\u00fcr Bev\u00f6lkerungsschutz", "ref:kgs": "3031", "ruins": "yes", "tourism": "attraction", "wheelchair": "no", "wikidata": "Q1012057", "wikipedia": "de:Burg Grottenstein"}}, {"type": "node", "id": 5124736761, "lat": 47.5064322, "lon": 7.6967679, "tags": {"castle_type": "defensive", "historic": "castle", "historic:civilization": "medieval", "name": "Ruine Madeln", "wheelchair": "no", "wikidata": "Q2175363", "wikipedia": "de:Ruine Madeln"}}, {"type": "node", "id": 5210628522, "lat": 47.4276885, "lon": 7.1724109, "tags": {"access": "customers", "castle_type": "defensive", "historic": "castle", "historic:civilization": "medieval", "name": "Ch\u00e2teau de Mi\u00e9court", "website": "https://www.facmi.ch/", "wikidata": "Q67772823", "wikimedia_commons": "File:Miecourt-Chateau.jpg"}}, {"type": "node", "id": 5264204580, "lat": 46.7967594, "lon": 6.6089496, "tags": {"access": "yes", "castle_type": "defensive", "historic": "castle", "historic:civilization": "medieval", "name": "Ruines du ch\u00e2teau de Montagny", "name:de": "Burgruine Montagny-pr\u00e8s-Yverdon", "ruins": "yes", "wikidata": "Q29891122", "wikipedia": "de:Burgruine Montagny-pr\u00e8s-Yverdon"}}, {"type": "node", "id": 5300918721, "lat": 47.6041186, "lon": 8.9100273, "tags": {"access": "private", "castle_type": "stately", "description": "Erbaut 1601-1617 f\u00fcr Ulrich v. Breitenlandenberg. Im Kern ein Bergfried, erbaut 1242/43, Sitz der Rheichenauer Ministerialen Bettler (Beteler) v. Herdern (1252-1424), 1683-1848 im Besitz des Klosters St. Urban/LU. (Quelle: Burgenverein.ch)", "historic": "castle", "historic:civilization": "medieval", "name": "Schloss Herdern", "wikidata": "Q29883029", "wikimedia_commons": "Category:Schloss_Herdern"}}, {"type": "node", "id": 5489821152, "lat": 47.4556314, "lon": 8.7084413, "tags": {"castle_type": "defensive", "historic": "castle", "historic:civilization": "medieval", "name": "Burg Rossberg", "ruins": "yes", "wikidata": "Q1013730", "wikipedia": "de:Burg_Rossberg"}}, {"type": "node", "id": 5593295129, "lat": 46.7401776, "lon": 9.408576, "tags": {"castle_type": "defensive", "historic": "castle", "name": "Burg Heinzenberg", "ruins": "yes", "wikidata": "Q1012273", "wikipedia": "de:Burg Heinzenberg"}}, {"type": "node", "id": 5627404766, "lat": 46.7763225, "lon": 9.2412999, "tags": {"access": "yes", "castle_type": "defensive", "description": "Das fr\u00fchma. Kirchenkastell im 12. Jh. von den Herren v. Castrisch zu Feudalburg ausgebaut, im 14. Jh. in Besitz der Herren v. Belmont, 1483 erwarb Bischof von Chur Burg und Herrschaft von den Herren v. Sax-Misox. Um 1550 Ruine. (Quelle: Burgenverein.ch)", "historic": "castle", "historic:civilization": "medieval", "name": "Burgruine Castrisch", "ruins": "yes", "wikidata": "Q1011329", "wikipedia": "de:Burg Castrisch"}}, {"type": "node", "id": 5627453580, "lat": 46.7480747, "lon": 9.0020627, "tags": {"access": "yes", "castle_type": "defensive", "historic": "castle", "historic:civilization": "medieval", "name": "Burg Friberg", "ruins": "yes", "wikidata": "Q1011846", "wikipedia": "de:Burg_Friberg_(Trun)"}}, {"type": "node", "id": 5627511198, "lat": 46.9217117, "lon": 9.7753353, "tags": {"alt_name": "Ober-Sansch", "castle_type": "defensive", "historic": "castle", "name": "Burg Kapfenstein", "ruins": "yes", "wikidata": "Q1012608", "wikipedia": "de:Burg Kapfenstein"}}, {"type": "node", "id": 5627514585, "lat": 46.720987, "lon": 8.8980076, "tags": {"castle_type": "defensive", "historic": "castle", "name": "Burg Hohenbalken", "ruins": "yes", "wikidata": "Q1012383", "wikipedia": "de:Burg_Hohenbalken"}}, {"type": "node", "id": 5628311857, "lat": 46.7593003, "lon": 9.1325364, "tags": {"castle_type": "defensive", "historic": "castle", "name": "Burg Moregg", "ruins": "yes", "wikidata": "Q1013144", "wikipedia": "de:Burg_Moregg"}}, {"type": "node", "id": 5628671286, "lat": 46.9247208, "lon": 9.519441, "tags": {"castle_type": "defensive", "historic": "castle", "name": "Burg Rappenstein", "ruins": "yes", "wikidata": "Q1013583", "wikipedia": "de:Burg_Rappenstein"}}, {"type": "node", "id": 5628723539, "lat": 46.7479871, "lon": 9.0461255, "tags": {"castle_type": "defensive", "historic": "castle", "name": "Burg Saxenstein", "ruins": "yes", "wikidata": "Q1013824", "wikipedia": "de:Burg_Saxenstein"}}, {"type": "node", "id": 5628822414, "lat": 46.7298392, "lon": 8.9228929, "tags": {"castle_type": "defensive", "historic": "castle", "name": "Burg Tuor", "ruins": "yes", "wikidata": "Q1014301", "wikipedia": "de:Burg_Tuor"}}, {"type": "node", "id": 5628837128, "lat": 46.7817877, "lon": 9.100409, "tags": {"castle_type": "defensive", "historic": "castle", "name": "Burg Vogelberg", "ruins": "yes", "wikidata": "Q1014411", "wikipedia": "de:Burg_Vogelberg"}}, {"type": "node", "id": 5629054792, "lat": 46.9095454, "lon": 7.7095434, "tags": {"castle_type": "defensive", "historic": "castle", "name": "Burg Neu-Signau", "ruins": "yes", "wikidata": "Q1013239", "wikipedia": "de:Burg_Neu-Signau"}}, {"type": "node", "id": 5629122641, "lat": 47.1015542, "lon": 7.7288189, "tags": {"castle_type": "defensive", "historic": "castle", "name": "Burg Friesenberg", "ruins": "yes", "wikidata": "Q1011871", "wikipedia": "de:Burg_Friesenberg_(Wynigen)"}}, {"type": "node", "id": 5629466695, "lat": 47.4642113, "lon": 9.5854009, "tags": {"access": "yes", "castle_type": "defensive", "historic": "castle", "historic:civilization": "medieval", "name": "Burgruine Alt-Rheineck", "ruins": "yes", "wikidata": "Q29786747"}}, {"type": "node", "id": 5646107721, "lat": 47.3447096, "lon": 8.4866398, "tags": {"castle_type": "defensive", "historic": "castle", "name": "Burgstelle Sellenb\u00fcren", "ruins": "yes", "wikidata": "Q1013983", "wikipedia": "de:Burg Sellenb\u00fcren"}}, {"type": "node", "id": 5653941319, "lat": 46.5066168, "lon": 9.6273281, "tags": {"access": "yes", "alt_name": "Marmorera", "castle_type": "defensive", "historic": "castle", "historic:civilization": "medieval", "name": "Burgruine Marmels", "ruins": "yes", "wikidata": "Q1013078", "wikipedia": "de:Burg Marmels"}}, {"type": "node", "id": 5653964641, "lat": 46.8163742, "lon": 9.2643697, "tags": {"castle_type": "defensive", "historic": "castle", "name": "Casti Lagenberg", "ruins": "yes", "wheelchair": "yes", "wikidata": "Q1012801", "wikipedia": "de:Burg Lagenberg"}}, {"type": "node", "id": 5676441325, "lat": 47.4135863, "lon": 8.0576637, "tags": {"access": "yes", "alt_name": "Ruine Horen", "castle_type": "hill_fort", "historic": "castle", "historic:civilization": "medieval", "name": "Ruine Rosenberg", "start_date": "1100", "wikidata": "Q2175317", "wikipedia": "de:Ruine Horen"}}, {"type": "node", "id": 5762357844, "lat": 46.5933105, "lon": 9.4230266, "tags": {"castle_type": "defensive", "description": "Burgruine", "historic": "castle", "name": "B\u00e4renburg", "ruins": "yes", "wikidata": "Q1011254", "wikipedia": "de:Burg_B\u00e4renburg_(Andeer)"}}, {"type": "node", "id": 5762404117, "lat": 46.779375, "lon": 9.1195461, "tags": {"castle_type": "defensive", "historic": "castle", "name": "Burgruine Gr\u00fcnenfels", "ruins": "yes", "wikidata": "Q1012102", "wikipedia": "de:Burg Gr\u00fcnenfels"}}, {"type": "node", "id": 5762408141, "lat": 46.7522696, "lon": 9.0635535, "tags": {"castle_type": "defensive", "historic": "castle", "name": "Burgruine Heidenberg", "ruins": "yes", "wikidata": "Q1012249", "wikipedia": "de:Burg Heidenberg"}}, {"type": "node", "id": 5762480318, "lat": 46.7779995, "lon": 9.2094703, "tags": {"castle_type": "defensive", "historic": "castle", "name": "Burgruine L\u00f6wenstein", "ruins": "yes", "wikidata": "Q1013044", "wikipedia": "de:Burg_L\u00f6wenstein_(Ilanz)"}}, {"type": "node", "id": 5762494486, "lat": 46.7504601, "lon": 9.0726942, "tags": {"castle_type": "defensive", "historic": "castle", "name": "Burg Schwarzenstein", "ruins": "yes", "wikidata": "Q1013941", "wikipedia": "de:Burg Schwarzenstein (Obersaxen)"}}, {"type": "node", "id": 5762504483, "lat": 46.788105, "lon": 9.2767017, "tags": {"castle_type": "defensive", "historic": "castle", "name": "Burgruine Valendas", "ruins": "yes", "wikidata": "Q1014352", "wikipedia": "de:Burg Valendas"}}, {"type": "node", "id": 5762504622, "lat": 46.8969977, "lon": 9.567357, "tags": {"access": "yes", "castle_type": "defensive", "description": "Burgstelle mit schwachen Mauerspuren eines Turmes. Gr\u00fcndungszeit und Erbauer unbekannt, 1370 als bisch\u00f6fliche Lehen an die Herren v. Unterwegen verpf\u00e4ndet; im 15. Jh. aufgelassen. (Quelle: Burgenverein.ch)", "historic": "castle", "historic:civilization": "medieval", "name": "Burgstelle Trimmis", "ruins": "yes", "site_type": "fortification", "wikidata": "Q102898617"}}, {"type": "node", "id": 5762508653, "lat": 46.7995224, "lon": 9.2192781, "tags": {"castle_type": "defensive", "historic": "castle", "name": "Burgruine Wildenberg", "ruins": "yes", "wikidata": "Q1014596", "wikipedia": "de:Burg Wildenberg (Falera)"}}, {"type": "node", "id": 5965003129, "lat": 47.4268326, "lon": 8.8174647, "tags": {"castle_type": "defensive", "historic": "castle", "name": "Ruine Alt-Wildberg", "wikidata": "Q2175182", "wikipedia": "de:Ruine Alt-Wildberg"}}, {"type": "node", "id": 5965006827, "lat": 47.4815233, "lon": 8.6874047, "tags": {"alt_name": "Schl\u00f6sslibuck", "castle_type": "defensive", "historic": "castle", "name": "Burgstelle Buch", "ruins": "yes", "wikidata": "Q56648460", "wikipedia": "de:Burg Buch (Winterthur)"}}, {"type": "node", "id": 5986984836, "lat": 47.3900497, "lon": 8.3429233, "tags": {"castle_type": "stately", "historic": "castle", "name": "Schloss Bellikon", "wheelchair": "yes", "wikidata": "Q2240231", "wikipedia": "de:Schloss Bellikon"}}, {"type": "node", "id": 5987030950, "lat": 47.554658, "lon": 8.3277623, "tags": {"castle_type": "defensive", "historic": "castle", "name": "Ruine B\u00f6bikon", "ruins": "yes", "wikidata": "Q14538239", "wikipedia": "de:Ruine B\u00f6bikon"}}, {"type": "node", "id": 5988350249, "lat": 47.4385991, "lon": 8.8384157, "tags": {"access": "permissive", "castle_type": "defensive", "historic": "castle", "historic:civilization": "medieval", "name": "Ruine T\u00f6ssegg", "ruins": "yes", "wikidata": "Q1666922", "wikipedia": "de:Ruine T\u00f6ssegg"}}, {"type": "node", "id": 5991231959, "lat": 47.6470505, "lon": 8.630703, "tags": {"castle_type": "defensive", "fixme": "is this the correct location?", "historic": "castle", "historic:civilization": "ancient_roman", "name": "Warte Mannhausen", "ruins": "yes", "wikidata": "Q29574190"}}, {"type": "node", "id": 6006168717, "lat": 46.2583409, "lon": 7.4657234, "tags": {"access": "yes", "castle_type": "defensive", "historic": "castle", "historic:civilization": "medieval", "name": "Ruines du Ch\u00e2teau Morestel", "ruins": "yes", "wikidata": "Q29927450"}}, {"type": "node", "id": 6013968279, "lat": 46.6540744, "lon": 7.5680145, "tags": {"access": "yes", "castle_type": "defensive", "description": "Auch Diemtiger Burg oder Grimmenstein genannt. Nicht zu verwechseln mit Grimmenstein bei Wynigen/BE https://de.wikipedia.org/wiki/Ruine_Grimmenstein", "historic": "castle", "historic:civilization": "medieval", "name": "Ruine Hasenburg", "ruins": "yes", "wikidata": "Q59617012", "wikipedia": "de:Ruine Hasenburg (Grimmenstein)"}}, {"type": "node", "id": 6014018437, "lat": 47.0871022, "lon": 7.132523, "tags": {"castle_type": "defensive", "historic": "castle", "name": "Ruine Festi", "ruins": "yes", "wikidata": "Q1665132", "wikipedia": "de:Ruine Festi (Ligerz)"}}, {"type": "node", "id": 6020806251, "lat": 47.2315918, "lon": 9.4491885, "tags": {"castle_type": "defensive", "historic": "castle", "name": "Burgruine Frischenberg", "ruins": "yes", "wikidata": "Q1011876", "wikipedia": "de:Burg Frischenberg"}}, {"type": "node", "id": 6027925903, "lat": 47.557018, "lon": 8.5930537, "tags": {"access": "yes", "castle_type": "defensive", "description": "Westlich \u00fcber Gr\u00e4slikon unterhalb Pkt. 659. Kleine Wallanlage mit 65 m langem und 1 m hohem Wall an der SW-Seite. (Quelle: Burgenverein.ch)", "historic": "castle", "historic:civilization": "medieval", "name": "Burgstelle Hebelstein", "ruins": "yes", "wikidata": "Q67772228"}}, {"type": "node", "id": 6027975046, "lat": 47.6794025, "lon": 8.6582122, "tags": {"access": "yes", "castle_type": "defensive", "historic": "castle", "historic:civilization": "medieval", "name": "Burgstelle Burgerm\u00f6sli", "ruins": "yes", "wikidata": "Q29932604"}}, {"type": "node", "id": 6028494517, "lat": 47.2983068, "lon": 8.7269251, "tags": {"access": "yes", "alt_name": "Burgstelle Liebenberg im Brand", "castle_type": "defensive", "description": "Burgh\u00fcgel mit geringen Mauerspuren, dreiseitig von Graben umgeben. Im 13./14. Jh. Ministerialensitz des Klosters St. Gallen, 1444 von Schwyz zerst\u00f6rt; viereckiger Fundamentsockel mit aufgesetztem Rundturm 1851 eingest\u00fcrzt. (Quelle: Burgenverein.ch)", "historic": "castle", "historic:civilization": "medieval", "name": "Burgstelle Liebenberg", "note": "Siehe auch https://hls-dhs-dss.ch/de/articles/019742/2007-03-29/ und http://www.burgenwelt.org/schweiz/liebenberg_ib/object.php . Nicht verwechseln mit offenbar gleichnamiger Ruine im T\u00f6sstal https://www.openstreetmap.org/way/84965808.", "ruins": "yes", "wikidata": "Q67772231"}}, {"type": "node", "id": 6040429283, "lat": 47.565301, "lon": 8.6906281, "tags": {"access": "yes", "castle_type": "defensive", "description": "Ovaler Burgh\u00fcgel mit Mauerspuren, umgeben von einem Wall mit zwei \u00d6ffnungen. Wohl urspr\u00fcnglich fr\u00fchmittelalterliche Motte, die im 13. Jh. in eine Steinburg umgewandelt wurde. Die Herren v. Hengart erwiesen 1222. (Quelle: Burgenverein.ch)", "historic": "castle", "historic:civilization": "medieval", "name": "Burgstelle Schlossbuck", "ruins": "yes", "wikidata": "Q29574068"}}, {"type": "node", "id": 6040449854, "lat": 47.5111515, "lon": 8.6469684, "tags": {"castle_type": "defensive", "description": "Burgh\u00fcgel mit zwei deutlich erkennbaren Halsgr\u00e4ben. Wohl um 1260 erb. durch die Freiherren v. Wart, 1309 zerst\u00f6rt. Bei Sondierungen 1953 Ringmauer und Turm sowie sp\u00e4tbronzezeitl. Besiedlung festgestellt. (Quelle: Burgenverein.ch)", "historic": "castle", "historic:civilization": "medieval", "name": "Burgstelle Multberg", "ruins": "yes", "wikidata": "Q67772234", "wikipedia": "de:Burgstelle Multberg"}}, {"type": "node", "id": 6042851508, "lat": 46.9194958, "lon": 9.7681428, "tags": {"castle_type": "defensive", "historic": "castle", "name": "Burgstelle Stadion", "ruins": "yes", "wikidata": "Q67772237"}}, {"type": "node", "id": 6042876310, "lat": 46.6307974, "lon": 9.440674, "tags": {"castle_type": "defensive", "historic": "castle", "name": "Burgstelle Hasenstein", "ruins": "yes", "wikidata": "Q67772241"}}, {"type": "node", "id": 6042932644, "lat": 47.4351071, "lon": 8.9990685, "tags": {"castle_type": "defensive", "historic": "castle", "name": "Burgstelle Chranzenberg", "ruins": "yes", "wikidata": "Q67772245"}}, {"type": "node", "id": 6044835067, "lat": 47.3472819, "lon": 9.4113871, "tags": {"castle_type": "defensive", "historic": "castle", "name": "Ruine Clanx", "ruins": "yes", "wikidata": "Q2175234", "wikipedia": "de:Ruine Clanx"}}, {"type": "node", "id": 6047628318, "lat": 47.5653809, "lon": 8.57325, "tags": {"access": "yes", "alt_name": "Alt-Schollenberg", "alt_name_1": "Radegg", "castle_type": "defensive", "description": "Burgh\u00fcgel ohne Mauerspuren, mit Halsgraben gegen Osten gesch\u00fctzt, mit Abschnittsgraben getrenn in Haupt- und Vorburg. War wahrscheinlich im 13. und 14. Jh. als Hauptsitz der Familie Scholl, deshalb auch Schollenburg.", "ele": "465", "end_date": "C14", "historic": "castle", "historic:civilization": "medieval", "name": "Schlossbuck", "start_date": "C13", "wikidata": "Q29932505", "wikipedia": "de:Burgstelle Schlossbuck"}}, {"type": "node", "id": 6067502343, "lat": 46.5889728, "lon": 7.3807306, "tags": {"castle_type": "defensive", "historic": "castle", "name": "Laubegg", "ruins": "yes", "wikidata": "Q1012857", "wikipedia": "de:Burg Laubegg (BE)"}}, {"type": "node", "id": 6067502364, "lat": 47.133831, "lon": 7.3687839, "tags": {"castle_type": "defensive", "historic": "castle", "name": "Burgstelle Strassberg", "ruins": "yes", "wikidata": "Q67772251"}}, {"type": "node", "id": 6067511264, "lat": 46.6611754, "lon": 7.5483662, "tags": {"castle_type": "defensive", "historic": "castle", "name": "Burgruine Erlenbach", "ruins": "yes", "wikidata": "Q67772254"}}, {"type": "node", "id": 6067539306, "lat": 46.3779848, "lon": 7.284915, "tags": {"castle_type": "defensive", "historic": "castle", "name": "Burgstelle Gsteig", "ruins": "yes", "wikidata": "Q67772255"}}, {"type": "node", "id": 6067546348, "lat": 46.7821599, "lon": 7.5291612, "tags": {"castle_type": "defensive", "historic": "castle", "name": "Ruine Festi", "ruins": "yes", "wikidata": "Q18326495", "wikipedia": "de:Ruine Festi (Bennewil)"}}, {"type": "node", "id": 6067550540, "lat": 46.8650457, "lon": 7.3647832, "tags": {"castle_type": "defensive", "historic": "castle", "image": "https://upload.wikimedia.org/wikipedia/commons/thumb/9/90/Ruine_Riedburg_03.jpg/800px-Ruine_Riedburg_03.jpg", "name": "Ruine Riedburg", "ruins": "yes", "wikidata": "Q1727529", "wikimedia_commons": "Category:Ruine Riedburg", "wikipedia": "de:Ruine Riedburg"}}, {"type": "node", "id": 6074804207, "lat": 47.0128925, "lon": 7.6780792, "tags": {"access": "yes", "castle_type": "defensive", "historic": "castle", "historic:civilization": "medieval", "name": "Burg Brandis", "ruins": "yes", "site_type": "fortification", "wikidata": "Q1011142", "wikipedia": "de:Burg Brandis"}}, {"type": "node", "id": 6074854753, "lat": 46.6085936, "lon": 7.6956859, "tags": {"addr:full": "Aris, 3713 Reichenbach im Kandertal", "alt_name": "Ruine Aris ob Kien", "castle_type": "defensive", "historic": "castle", "historic:civilization": "medieval", "name": "Burg Aris ob Kien", "ruins": "yes", "wikidata": "Q1010836", "wikipedia": "de:Burg Aris ob Kien"}}, {"type": "node", "id": 6074856133, "lat": 47.1941232, "lon": 7.3378443, "tags": {"castle_type": "defensive", "historic": "castle", "name": "Romont", "ruins": "yes", "wikidata": "Q67772258"}}, {"type": "node", "id": 6081018389, "lat": 46.5717128, "lon": 7.3819912, "tags": {"alt_name": "Ruine Mannenberg", "castle_type": "defensive", "historic": "castle", "historic:civilization": "medieval", "name": "Ruine Oberer Mannenberg", "ruins": "yes", "wikidata": "Q1700496", "wikipedia": "de:Ruine Oberer Mannenberg"}}, {"type": "node", "id": 6193239766, "lat": 47.367082, "lon": 7.1545055, "tags": {"access": "yes", "castle_type": "medieval", "historic": "castle", "historic:civilization": "medieval", "name": "Ruines du Ch\u00e2teau de Sainte Ursanne", "wikidata": "Q29785348"}}, {"type": "node", "id": 6210075068, "lat": 46.9757359, "lon": 9.6158211, "tags": {"castle_type": "defensive", "description": "Grottenburg, Kirche St. Aper (verschwunden) und Burgpfaffenhaus. Erbaut wohl im 13. Jh., 1338 Verkauf von den Herren v. Aspermont an die Grafen v. Toggenburg und die V\u00f6gte v. Matsch (Vintschgau), wohl im 15. Jh. aufgelassen. (Quelle: Burgenverein.ch)", "historic": "castle", "historic:civilization": "medieval", "inscription": "Klause / Klus", "name": "Burgruine Fracstein", "ruins": "yes", "wikidata": "Q1011758", "wikipedia": "de:Burg Fracstein"}}, {"type": "node", "id": 6405116864, "lat": 47.4830896, "lon": 8.4383146, "tags": {"castle_type": "stately", "historic": "castle", "name": "Schloss Regensberg", "website": "http://www.schlossregensberg.ch/", "wikidata": "Q2243086", "wikipedia": "de:Schloss Regensberg"}}, {"type": "node", "id": 6405148590, "lat": 47.4249597, "lon": 9.3116917, "tags": {"access": "yes", "castle_type": "defensive", "description": "Burgh\u00fcgel mit Graben und geringen Mauerresten. Ehem. Sitz der Herren v. Meldegg (erwiesen 1312). (Quelle: Burgenverein.ch)", "historic": "castle", "historic:civilization": "medieval", "name": "Burgstelle Neu Meldegg", "ruins": "yes", "wikidata": "Q67772265"}}, {"type": "node", "id": 6417110027, "lat": 47.3668725, "lon": 7.9607415, "tags": {"access": "yes", "castle_type": "defensive", "historic": "castle", "historic:civilization": "medieval", "name": "Ruine G\u00f6skon", "wheelchair": "no", "wikidata": "Q28000760", "wikipedia": "de:Ruine G\u00f6skon"}}, {"type": "node", "id": 6419670946, "lat": 47.5421766, "lon": 8.4130778, "tags": {"access": "yes", "alt_name": "Grottenburg Hohfluh", "castle_type": "defensive", "description": "Am Fusse der Hohflue eine Balm, beidseits mit Ans\u00e4tzen von Bollensteinmauerwerk. Wohl mittelalterliche H\u00f6hlenburg. Sondierungen 1840, 1850, 1878 und 1975. (Quelle: Burgenverein.ch)", "ele": "514", "fee": "no", "historic": "castle", "historic:civilization": "medieval", "name": "Erdmannliloch", "name:gsw": "Erdm\u00e4nnliloch", "natural": "cave_entrance", "site_type": "fortification", "wikidata": "Q102105508", "wikipedia": "de:Grottenburg Hohfluh"}}, {"type": "node", "id": 6419731352, "lat": 47.5729962, "lon": 8.6046877, "tags": {"access": "yes", "castle_type": "defensive", "description": "Burgh\u00fcgel ohne Mauerspuren, am E-Rand ein Graben erkennbar, Flurname 'uffem B\u00fcrgli' erwiesen 1586. Herren v. Flaach erwiesen 1120. (Quelle: Burgenverein.ch)", "ele": "415", "historic": "castle", "historic:civilization": "medieval", "name": "Burgstelle H\u00e4chigen", "start_date": "C11", "wikidata": "Q102872320"}}, {"type": "node", "id": 6419742095, "lat": 47.549324, "lon": 8.5811038, "tags": {"access": "yes", "castle_type": "defensive", "description": "Burgh\u00fcgel ohne Mauerspuren, von tiefem Halsgraben und seitlichen W\u00e4llen umgeben. Bis 1315 Sitz der 1116 erwiesen Freiherren v. Teufen (Minnes\u00e4nger Wernher v. Teufen erwiesen um 1220), Burg im 15. Jh. aufgelassen. (Quelle: Burgenverein.ch)", "ele": "529", "end_date": "C15", "historic": "castle", "historic:civilization": "medieval", "name": "Burgstelle Altenteufen", "name:gsw": "Alt-T\u00fcfen", "ruins": "no", "start_date": "early C12", "wikidata": "Q101584140", "wikipedia": "de:Burgstelle Altenteufen"}}, {"type": "node", "id": 6419753631, "lat": 47.5612589, "lon": 8.5697621, "tags": {"access": "yes", "castle_type": "defensive", "description": "Burgh\u00fcgel durch Graben in zwei Teile gegliedert. Herren v. Radegg erwiesen 1188. Sondierung 1931 mit Nachweis von mittelalterlicher Besiedlung. (Quelle: Burgenverein.ch)", "ele": "448", "historic": "castle", "historic:civilization": "medieval", "name": "Burgstelle Radegg", "wikidata": "Q102171185", "wikipedia": "de:Burgstelle Radegg"}}, {"type": "node", "id": 6419791720, "lat": 47.5944835, "lon": 8.6422377, "tags": {"castle_type": "defensive", "description": "Burgstelle ohne Mauerspuren, mit Graben. Sitz der Herren v. Wespersb\u00fchl, erwiesen 1238, 1532-1650 Besitz der Peyer von Schaffhausen, im 18. Jh. aufgelassen. (Quelle: Burgenverein.ch)", "ele": "394", "historic": "castle", "historic:civilization": "medieval", "name": "Burgstelle Wespersb\u00fchl", "wikidata": "Q102881938"}}, {"type": "node", "id": 6419800577, "lat": 47.4588814, "lon": 8.648109, "tags": {"access": "yes", "alt_name": "R\u00f6merwarte", "castle_type": "defensive", "description": "Erdbefestigung eines sp\u00e4tr\u00f6mischen Wachtturmes, wohl im 8./9. Jh. zu Motte und Errichtung einer Holzburg (Schiterburg) umgebaut. (Quelle: Burgenverein.ch)", "ele": "577", "historic": "castle", "historic:civilization": "ancient_roman", "name": "Burgstelle Obere Heidenburg", "start_date": "C4", "wikidata": "Q102250805", "wikipedia": "de:Burgstelle Obere Heidenburg"}}, {"type": "node", "id": 6420816733, "lat": 47.4810099, "lon": 8.2200261, "tags": {"castle_type": "castrum", "historic": "castle", "historic:civilization": "ancient_roman", "name": "Vindonissa", "ruins": "yes", "wikidata": "Q667811", "wikipedia": "de:Vindonissa"}}, {"type": "node", "id": 6431863749, "lat": 47.5067238, "lon": 8.7555456, "tags": {"access": "yes", "castle_type": "castrum", "description": "Pr\u00e4hist. Besiedlung der Terrasse nachgewiesen, Gel\u00e4ndesporn um M.1.Jh. von r\u00f6m. Vicus VITUDURUM \u00fcberbaut, um 290 n. Chr. befestigt. Teile der Kastellmauer und ein Halbrundturm in die ma. Friedhofsmauer integriert. (Quelle: Burgenverein.ch)", "historic": "castle", "historic:civilization": "ancient_roman", "name": "Kastell Vitudurum", "ruins": "yes", "wikidata": "Q164912", "wikipedia": "de:Vitudurum"}}, {"type": "node", "id": 6433039469, "lat": 47.2864093, "lon": 7.6935453, "tags": {"access": "yes", "alt_name": "Obere Erlinsburg", "castle_type": "defensive", "description": "Auf dem westlichen Teil der Leenfluh sp\u00e4rliche Mauerreste. Wohl M. 13. Jh. errichtet, nach 1375 aufgelassen. Sondierungen 1952. (Quelle: Burgenverein.ch)", "historic": "castle", "historic:civilization": "medieval", "name": "Vordere Erlinsburg", "ruins": "yes", "wikidata": "Q104381836"}}, {"type": "node", "id": 6433048290, "lat": 47.2875585, "lon": 7.6968114, "tags": {"access": "yes", "castle_type": "defensive", "description": "Im mittleren Abschnitt des Leenfluhgrates. Sp\u00e4rliche Mauerreste eines turmartigen Geb\u00e4udes. Keine urk. Erw\u00e4hnung. (Quelle: Burgenverein.ch)", "historic": "castle", "historic:civilization": "medieval", "name": "Mittlere Erlinsburg", "ruins": "yes", "wikidata": "Q67772269"}}, {"type": "node", "id": 6433050924, "lat": 47.2880816, "lon": 7.6990286, "tags": {"access": "yes", "alt_name": "Untere Erlinsburg", "castle_type": "defensive", "description": "Auf dem Felsgrat der Leenfluh, \u00f6stlich der Kantonsgrenze. Burgruine mit Mauerresten eines Turmes und der Ringmauer. Wohl gegr\u00fcndet 11./12. Jh., um 1375 aufgelassen, 1463 Gebietsteilung Bern/Solothurn. (Quelle: Burgenverein.ch)", "historic": "castle", "historic:civilization": "medieval", "name": "Hintere Erlinsburg", "ruins": "yes", "wikidata": "Q104383057"}}, {"type": "node", "id": 6433054700, "lat": 47.2889439, "lon": 7.700896, "tags": {"access": "yes", "castle_type": "defensive", "description": "Am E-Ende des Felsgrates. Mauerreste einer ma. Burgstelle oder eines Beob-Posten 18./19. Jh. Sondierung 2006 (Kanton, C. Hodel).  (Quelle: Burgenverein.ch) Weg vom Leuental mit in den Fels gehauenen Treppen dahin.", "historic": "castle", "historic:civilization": "medieval", "name": "Hinterste Erlinsburg", "ruins": "yes", "wikidata": "Q67772274"}}, {"type": "node", "id": 6434170118, "lat": 47.4895168, "lon": 8.6429804, "tags": {"access": "yes", "alt_name": "Burgruine Wagenberg", "castle_type": "defensive", "castle_type:de": "burgruine", "description": "Bewaldeter Burgh\u00fcgel mit Mauerspuren und Halsgraben. Erw. 1263 als Besitz der Herren v. Wagenburg, um 1300 der Herren v. Heidegg, nach Brand 1556 aufgelassen. (Quelle: Burgenverein.ch)", "ele": "580", "historic": "castle", "historic:civilization": "medieval", "name": "Ruine Wagenburg", "ruins": "yes", "start_date": "C13", "wikidata": "Q29932951", "wikipedia": "de:Ruine Wagenburg (Oberembrach)"}}, {"type": "node", "id": 6434509622, "lat": 46.2901084, "lon": 7.7948813, "tags": {"access": "yes", "castle_type": "defensive", "description": "Auf einem Felssporn \u00fcber dem M\u00fchletal. Mauerreste einer Burganlage mit Bergried, Ringmauer und Zisterne. Wohl noch im 12. Jh. entstanden, Sitz der Herren von Bex als Ministerialen der Abtei St. Maurice, im 14. Jh. aufgelassen.  (Quelle: Burgenverein.ch)", "historic": "castle", "historic:civilization": "medieval", "name": "Ruine Zwingherrenschloss", "ruins": "yes", "wikidata": "Q29928905"}}, {"type": "node", "id": 6445923485, "lat": 46.2377584, "lon": 9.1325974, "tags": {"castle_type": "defensive", "historic": "castle", "historic:civilization": "medieval", "name": "Castello Trivulzio", "wikidata": "Q67772280"}}, {"type": "node", "id": 6501065287, "lat": 47.1064076, "lon": 7.6945059, "tags": {"access": "yes", "castle_type": "defensive", "historic": "castle", "historic:civilization": "medieval", "name": "Ruine Grimmenstein", "wikidata": "Q2175278", "wikipedia": "de:Ruine Grimmenstein"}}, {"type": "node", "id": 6633061249, "lat": 47.5154872, "lon": 7.9664411, "tags": {"access": "yes", "castle_type": "hill_fort", "ele": "464", "historic": "castle", "historic:civilization": "medieval", "name": "Herrain", "ruins": "yes", "start_date": "1000", "website": "http://www.waymarking.com/waymarks/WMRZE0_Herrain_Schupfart_AG_Switzerland", "wikidata": "Q1613951", "wikipedia": "de:Herrain"}}, {"type": "node", "id": 6639206608, "lat": 47.5126956, "lon": 7.6214129, "tags": {"access": "yes", "castle_type": "defensive", "description": "Erbaut vor 1270 durch die Adelsfamilie M\u00fcnch, Pfirter Lehen bis 1324, 1515 von der Stadt Basel erworben, 1798 auf Abbruch verkauft. Teile der Unterburg hinter der Trotte 1996 freigelegt und konserviert. (Quelle: Burgenverein.ch)", "historic": "castle", "historic:civilization": "medieval", "name": "Burgruine M\u00fcnchenstein", "website": "http://www.schloss-muenchenstein.ch/", "wikidata": "Q488281", "wikipedia": "de:Ruine M\u00fcnchenstein"}}, {"type": "node", "id": 6745155462, "lat": 46.754212, "lon": 6.5283392, "tags": {"castle_type": "stately", "historic": "castle", "name": "Le Manoir", "wikidata": "Q29891565"}}, {"type": "node", "id": 6784714596, "lat": 46.8387677, "lon": 7.5356136, "tags": {"access": "yes", "castle_type": "hill_fort", "historic": "castle", "historic:civilization": "medieval", "name": "Burg Gerzensee", "ruins": "yes", "start_date": "1230", "wikidata": "Q1011946", "wikipedia": "de:Burg Gerzensee"}}, {"type": "node", "id": 6784720177, "lat": 47.0396027, "lon": 7.6156314, "tags": {"access": "yes", "castle_type": "hill_fort", "historic": "castle", "historic:civilization": "medieval", "name": "Burg Roth\u00f6chi", "start_date": "1200", "wikidata": "Q1013745", "wikipedia": "de:Burg Roth\u00f6chi"}}, {"type": "node", "id": 6784735829, "lat": 47.5548468, "lon": 7.789555, "tags": {"access": "yes", "castle_type": "defensive", "historic": "castle", "historic:civilization": "medieval", "name": "Burg Stein", "ruins": "yes", "start_date": "900", "wikidata": "Q1014091", "wikipedia": "de:Burg Stein (Rheinfelden)"}}, {"type": "node", "id": 6784737229, "lat": 46.9843783, "lon": 7.2619466, "tags": {"access": "yes", "castle_type": "hill_fort", "historic": "castle", "historic:civilization": "medieval", "name": "Burg Oltigen", "ruins": "yes", "start_date": "1000", "wikidata": "Q1013429", "wikipedia": "de:Burg Oltigen"}}, {"type": "node", "id": 6784758977, "lat": 47.4753069, "lon": 7.8278254, "tags": {"access": "yes", "castle_type": "hill_fort", "historic": "castle", "historic:civilization": "medieval", "name": "Ruine Itkon", "ruins": "yes", "start_date": "1100", "wikidata": "Q1554653", "wikipedia": "de:Ruine Itkon"}}, {"type": "node", "id": 6784763097, "lat": 47.540348, "lon": 8.4055671, "tags": {"access": "yes", "castle_type": "hillfort", "historic": "castle", "historic:civilization": "medieval", "name": "Ruine Waldhausen", "ruins": "yes", "start_date": "1100", "wikidata": "Q14538238", "wikipedia": "de:Ruine Waldhausen"}}, {"type": "node", "id": 6784772181, "lat": 47.3943614, "lon": 8.0452303, "tags": {"access": "customers", "castle_type": "defensive", "historic": "castle", "historic:civilization": "medieval", "name": "Schl\u00f6ssli Aarau", "start_date": "1300", "wikidata": "Q1370412", "wikipedia": "de:Schl\u00f6ssli Aarau"}}, {"type": "node", "id": 6784774282, "lat": 47.4316075, "lon": 7.4170865, "tags": {"access": "yes", "castle_type": "hill_fort", "historic": "castle", "historic:civilization": "medieval", "name": "Blauenstein", "start_date": "1200", "wikidata": "Q15213175", "wikipedia": "en:Blauenstein"}}, {"type": "node", "id": 6784926817, "lat": 46.8826212, "lon": 10.4530753, "tags": {"access": "yes", "castle_type": "hill_fort", "historic": "castle", "historic:civilization": "medieval", "name": "Ruine Serviezel", "start_date": "1100", "wikidata": "Q1638048", "wikipedia": "de:Ruine Serviezel"}}, {"type": "node", "id": 6785030120, "lat": 46.9488673, "lon": 7.4574872, "tags": {"access": "yes", "castle_type": "defensive", "historic": "castle", "historic:civilization": "medieval", "name": "Burg Nydegg", "ruins": "yes", "start_date": "1190", "wikidata": "Q1013356", "wikipedia": "de:Burg Nydegg"}}, {"type": "node", "id": 6785055049, "lat": 47.2364413, "lon": 6.9654731, "tags": {"access": "yes", "castle_type": "defensive", "historic": "castle", "historic:civilization": "medieval", "name": "Ruine de Spiegelberg", "ruins": "yes", "start_date": "1200", "wikidata": "Q1715185", "wikipedia": "de:Ruine Spiegelberg (Freiberge)"}}, {"type": "node", "id": 6785071973, "lat": 47.4561445, "lon": 7.4364517, "tags": {"access": "yes", "castle_type": "hill_fort", "historic": "castle", "historic:civilization": "medieval", "name": "Ruine Alt-Biederthal", "ruins": "yes", "start_date": "1100", "wikidata": "Q2175180", "wikipedia": "de:Ruine Alt-Biederthal"}}, {"type": "node", "id": 6785752889, "lat": 47.3993727, "lon": 7.2098976, "tags": {"access": "yes", "castle_type": "hill_fort", "historic": "castle", "name": "Asuel Castle", "ruins": "yes", "wikidata": "Q4811846", "wikipedia": "en:Asuel Castle"}}, {"type": "node", "id": 6785788257, "lat": 46.974729, "lon": 6.8767801, "tags": {"castle_type": "stately", "historic": "castle", "name": "Ch\u00e2teau d\u2019Auvernier", "wikidata": "Q4827245", "wikipedia": "en:Auvernier Castle"}}, {"type": "node", "id": 6980930101, "lat": 47.4566986, "lon": 8.6450584, "tags": {"access": "yes", "alt_name": "R\u00f6merwarte", "castle_type": "defensive", "description": "Erdbefestigung eines sp\u00e4tr\u00f6mischen Wachtturmes", "ele": "546", "historic": "castle", "historic:civilization": "ancient_roman", "name": "Burgstelle Untere Heidenburg", "start_date": "C4", "wikidata": "Q102257347", "wikipedia": "de:Burgstelle Untere Heidenburg"}}, {"type": "node", "id": 7029098187, "lat": 46.6383618, "lon": 7.4095724, "tags": {"castle_type": "fortress", "historic": "castle", "name": "Burgruine Hirzere", "ruins": "castle", "wikidata": "Q104207379"}}, {"type": "node", "id": 7029098188, "lat": 46.6431747, "lon": 7.4119399, "tags": {"historic": "castle", "name": "Burgruine Eichstalden", "ruins": "castle", "wikidata": "Q104207423"}}, {"type": "node", "id": 7033536327, "lat": 46.8777922, "lon": 7.425376, "tags": {"historic": "castle", "name": "Ruine Sternenberg", "ruins": "yes", "wikidata": "Q104207688"}}, {"type": "node", "id": 7034344527, "lat": 47.4686199, "lon": 7.6356525, "tags": {"alt_name": "H\u00fclzistein", "historic": "castle", "name": "Ruine Hilsenstein", "ruins": "yes", "wikidata": "Q1505312"}}, {"type": "node", "id": 7034629374, "lat": 47.4291798, "lon": 7.6278736, "tags": {"historic": "castle", "name": "Burgruine Steinegg", "ruins": "yes"}}, {"type": "node", "id": 7034629376, "lat": 46.5969647, "lon": 7.6334306, "tags": {"historic": "castle", "name": "Ruine B\u00fcrg", "ruins": "yes", "wikidata": "Q2175223"}}, {"type": "node", "id": 7034631887, "lat": 46.5273953, "lon": 7.3324517, "tags": {"historic": "castle", "name": "Ruine Terenstein", "site_type": "earthwork", "wikidata": "Q104208078"}}, {"type": "node", "id": 7041699316, "lat": 47.3417747, "lon": 7.854113, "tags": {"access": "yes", "castle_type": "defensive", "historic": "castle", "historic:civilization": "medieval", "name": "Burg Rickenbach", "ruins": "yes", "start_date": "1100", "wikidata": "Q104208228"}}, {"type": "node", "id": 7054738311, "lat": 47.1611708, "lon": 7.3151996, "tags": {"access": "yes", "historic": "castle", "historic:civilization": "medieval", "name": "Ruine Klosterhubel", "ruins": "castle", "wikidata": "Q104208757"}}, {"type": "node", "id": 7091755898, "lat": 46.8168473, "lon": 7.3211452, "tags": {"alt_name": "Burgstelle H\u00e4lfenstein", "alt_name_1": "Festihubel", "castle_type": "defensive", "ele": "771", "historic": "castle", "image": "https://upload.wikimedia.org/wikipedia/commons/thumb/9/98/Ruine_Helfenstein_(1).jpg/800px-Ruine_Helfenstein_(1).jpg", "location:description:de": "1,5 km westlich von Schwarzenburg, an der Strasse nach Heitenried auf einem Felssporn \u00fcber der Sense", "name": "Burgruine Helfenstein", "source:ele": "gpx", "wikidata": "Q101515803", "wikimedia_commons": "Category:Ruine Helfenstein (Festihubel)", "wikipedia": "de:Ruine Helfenstein (Festihubel)"}}, {"type": "node", "id": 7129682555, "lat": 46.8813231, "lon": 7.0410465, "tags": {"castle_type": "stately", "historic": "castle", "historic:civilization": "medieval", "name": "Ch\u00e2teau d'Avenches", "start_date": "1175", "wikidata": "Q2968182", "wikipedia": "fr:Ch\u00e2teau d'Avenches"}}, {"type": "node", "id": 7158258898, "lat": 47.6013287, "lon": 9.0856729, "tags": {"access": "permissive", "castle_type": "defensive", "description": "Burgh\u00fcgel mit Mauerresten von Turm und Ringmauer. Verm. Stammburg der Herren v. Klingen, erb. im 12. Jh., um 1200 aufgelassen. 1910/11 ausgegraben. Quelle: Burgenverein.ch", "historic": "castle", "historic:civilization": "medieval", "name": "Altenburg", "ruins": "yes", "wheelchair": "no", "wikidata": "Q29883194", "wikipedia": "de:Altenburg (M\u00e4rstetten)"}}, {"type": "node", "id": 7202146185, "lat": 46.6414882, "lon": 6.6300652, "tags": {"castle_type": "stately", "historic": "castle", "name": "Ch\u00e2teau d'\u00c9challens", "wikidata": "Q2968367", "wikipedia": "fr:Ch\u00e2teau d'\u00c9challens"}}, {"type": "node", "id": 7227853382, "lat": 47.2874565, "lon": 8.0897616, "tags": {"castle_type": "fortress", "historic": "castle", "name": "Ruine Alt Rued", "ruins": "yes", "wikidata": "Q29580716"}}, {"type": "node", "id": 7447538992, "lat": 47.5517173, "lon": 8.1722239, "tags": {"access": "yes", "castle_type": "defensive", "historic": "castle", "historic:civilization": "medieval", "name": "Burgstelle Wessenberg", "ruins": "yes", "wikidata": "Q19276110", "wikipedia": "de:Burg Wessenberg"}}, {"type": "node", "id": 7449326715, "lat": 47.4942819, "lon": 7.6290857, "tags": {"castle_type": "defensive", "historic": "castle"}}, {"type": "node", "id": 7627265560, "lat": 46.9208957, "lon": 7.4143077, "tags": {"access": "yes", "castle_type": "stately", "historic": "castle", "historic:civilization": "medieval", "name": "Schloss K\u00f6niz", "website": "https://www.kulturhof.ch/", "wikidata": "Q1654958", "wikipedia": "de:Schloss K\u00f6niz"}}, {"type": "node", "id": 7755784424, "lat": 46.5571777, "lon": 9.334466, "tags": {"access": "yes", "castle_type": "Defensive", "historic": "castle", "historic:civilization": "medieval", "name": "Burg Spl\u00fcgen", "ruins": "yes", "wikidata": "Q1014040", "wikipedia": "de:Burg_Spl\u00fcgen"}}, {"type": "node", "id": 7820420543, "lat": 47.6373319, "lon": 8.6929657, "tags": {"access": "private", "addr:city": "Tr\u00fcllikon", "addr:country": "CH", "addr:housenumber": "8", "addr:postcode": "8466", "addr:street": "Schlossgasse", "castle_type": "stately", "description": "1672/73 f\u00fcr H.H. B\u00fcrkli erbautes Altes Schloss, 1695 Erweiterung f\u00fcr Heinrich B\u00fcrkli v.Hochburg, kaiserlicher Feldmarschall (Neues Schloss), umgebaut 1762 und 19./20. Jh.. Renoviert 1988-92. (Quelle: Burgenverein.ch)", "historic": "castle", "name": "Schloss Tr\u00fcllikon", "wikidata": "Q29933144"}}, {"type": "node", "id": 7934740743, "lat": 46.4010535, "lon": 8.8712856, "tags": {"access": "yes", "castle_type": "defensive", "historic": "castle", "historic:civilization": "medieval", "name": "Castello di Santa Maria", "ruins": "yes", "wikidata": "Q1048854", "wikipedia": "de:Castello di Santa Maria"}}, {"type": "node", "id": 7937611745, "lat": 46.7151171, "lon": 7.0159909, "tags": {"castle_type": "stately", "historic": "castle", "name": "Ch\u00e2teau de Villarsel-le-Gibloux", "ruins": "yes", "wikidata": "Q56302187"}}, {"type": "node", "id": 8042929770, "lat": 47.2191076, "lon": 7.4036613, "tags": {"access": "yes", "alt_name": "Bettleschloss", "castle_type": "defensive", "historic": "castle", "historic:civilization": "medieval", "image": "https://upload.wikimedia.org/wikipedia/commons/thumb/1/1c/Burg_Grenchen_Bettleschloss.jpg/800px-Burg_Grenchen_Bettleschloss.jpg", "name": "Burg Grenchen", "note": "The ruins are clearly visible in the digital elevation model. There seems to be a detailed wiki of the city of Grenchen: http://wiki.stadtgeschichte-grenchen.c", "note_1": "https://www.babs.admin.ch/content/babs-internet/de/aufgabenbabs/kgs/inventar/b-objekte/_jcr_content/contentPar/downloadlist/downloadItems/50_1482843957189.download/b_so.pdf  Coordinates according to BABS: 47.21913  7.403647", "ruins": "yes", "wikidata": "Q29880562", "wikimedia_commons": "Category:Burg Grenchen", "wikipedia": "de:Burg_Grenchen"}}, {"type": "node", "id": 8148016503, "lat": 47.4832725, "lon": 8.4417418, "tags": {"access": "yes", "castle_type": "defensive", "description": "Planierte Fl\u00e4che ohne Mauerspuren, westlicher Halsgraben. Im 13. Jh. Sitz der Mandacher, die urspr\u00fcnglich ihren Sitz bei Brugg hatten. Burg im 14. Jh. aufgelassen. Kein \u00f6ffentlicher Zugang.", "ele": "591", "end_date": "C14", "historic": "castle", "historic:civilization": "medieval", "name": "Burgstelle Mandach", "start_date": "C13", "wikidata": "Q102170711", "wikipedia": "de:Burgstelle Mandach"}}, {"type": "node", "id": 8148577408, "lat": 47.5745297, "lon": 8.5876889, "tags": {"access": "private", "alt_name": "Nieder-Schollenberg", "castle_type": "defensive", "description": "Im Gegensatz zu Alt-Schollenberg auch Nieder-Schollenberg genannte Burgstelle. Anlage bestand aus Turm mit angebautem Wohnhaus. Burggr\u00e4ben noch sichtbar. Nach einem Brand wurde sie 1838/39 abgebrochen und durch ein Bauernhaus ersetzt. (Quelle: Burgenwelt.", "ele": "355", "historic": "castle", "historic:civilization": "medieval", "name": "Burgstelle Schollenberg", "start_date": "C13", "wikidata": "Q102177853", "wikipedia": "de:Burgstelle Schollenberg"}}, {"type": "node", "id": 8169282143, "lat": 47.1940673, "lon": 9.0025783, "tags": {"access": "private", "alt_name": "Wandelburg", "castle_type": "defensive", "description": "Ehemalige Burg auf einem 12 m hohen Sandsteinfelsen, vermutlich durch den Grafen von Rapperswil um 1200 gegr\u00fcndet.", "ele": "423", "historic": "castle", "historic:civilization": "medieval", "image": "https://upload.wikimedia.org/wikipedia/commons/4/44/Burgstelle_Wandelburg.jpg", "name": "Burgestelle Wandelberg", "start_date": "C13", "wikidata": "Q102367418", "wikimedia_commons": "Category:Burg Wandelberg", "wikipedia": "de:Burg Wandelberg"}}, {"type": "node", "id": 8173104333, "lat": 47.1850507, "lon": 8.8415268, "tags": {"access": "yes", "castle_type": "defensive", "description": "Ehemalige Stammburg der Rapperswilerum 1350 von dern Z\u00fcrchern zerst\u00f6rt. Chor der Kapelle St. Johann steht vermutlich auf dem Fundament der alten runden Burgkapelle.", "ele": "498", "historic": "castle", "historic:civilization": "medieval", "name": "Alt-Rapperswil", "start_date": "C11", "wikidata": "Q4735927", "wikipedia": "en:Alt Rapperswil Castle"}}, {"type": "node", "id": 8176951739, "lat": 47.1830203, "lon": 8.9443897, "tags": {"access": "no", "alt_name": "Wasserburg M\u00fclinen", "castle_type": "defensive", "description": "Um 1100 gegr\u00fcndete Wasserburg einer Ministerialfamilie beim Weiler M\u00fclenen. Ab 15.Jh. in b\u00e4uerlichen H\u00e4nden. 1968 beim Bau der Autobahn N3 \u00fcberdeckt.", "ele": "409", "historic": "castle", "historic:civilization": "medieval", "layer": "-1", "name": "Burgstelle M\u00fclenen", "start_date": "C12", "wikidata": "Q102512512", "wikipedia": "de:Wasserburg M\u00fclenen"}}, {"type": "node", "id": 8178774159, "lat": 47.5957562, "lon": 8.6781531, "tags": {"access": "private", "alt_name": "Alte Kanzlei", "castle_type": "defensive", "description": "Ab dem 12. Jh. genutzte Burg, die im 17. Jh. vom neuen Schloss Andelfingen abgel\u00f6st wurde. Danach wurde auf der Burgstelle die alte Kanzlei gebaut.", "ele": "382", "historic": "castle", "historic:civilization": "medieval", "image": "https://www.wikidata.org/wiki/Q102690996#/media/File:AltesSchloss.jpg", "name": "Altes Schloss Andelfingen", "start_date": "C13", "wikidata": "Q102690996", "wikipedia": "de:Altes Schloss Andelfingen"}}, {"type": "node", "id": 8181074853, "lat": 47.6096753, "lon": 8.6694483, "tags": {"access": "private", "castle_type": "defensive", "description": "Im 19. Jh. teilweise abgetragener Burgh\u00fcgel. Die Burg war wahrscheinlich im 14. Jh. Sitz der Herren von Schiterberg.", "ele": "398", "historic": "castle", "historic:civilization": "medieval", "name": "Burgstelle Schiterberg", "start_date": "C14", "wikidata": "Q102879126"}}, {"type": "node", "id": 8181172092, "lat": 47.5599908, "lon": 8.4039181, "tags": {"access": "yes", "alt_name": "Burgstelle Fisibach", "castle_type": "defensive", "description": "Halbrunder Abschnittsgraben und ein wenig \u00fcberh\u00f6hter Burgh\u00fcgel erkennbar. (Quelle: Burgenverein.ch)", "ele": "435", "historic": "castle", "historic:civilization": "medieval", "name": "Burgstelle Eichh\u00f6lzli", "site_type": "fortification", "wikidata": "Q102889894"}}, {"type": "node", "id": 8355898813, "lat": 47.4951639, "lon": 7.6293404, "tags": {"castle_type": "defensive", "historic": "castle", "name": "Ruine Hintere Birseck", "ruins": "yes", "wikidata": "Q103944033"}}, {"type": "node", "id": 8356065242, "lat": 47.4455386, "lon": 7.7663121, "tags": {"historic": "castle", "name": "Ruine Spitzburg", "ruins": "yes", "wikidata": "Q105011193"}}, {"type": "node", "id": 8357345116, "lat": 46.2910865, "lon": 6.1195672, "tags": {"castle_type": "fortress", "historic": "castle", "name": "La B\u00e2tie Beauregard", "ruins": "yes", "wikidata": "Q67772264"}}, {"type": "node", "id": 8380388023, "lat": 47.1789565, "lon": 7.860282, "tags": {"access": "yes", "castle_type": "defensive", "historic": "castle", "historic:civilization": "medieval", "name": "Ruine Langenstein", "note": "Es gibt einen Verein, der die Burgruinen Gr\u00fcnenberg und Langenstein unterh\u00e4lt. Darum die Website gruenenberg.ch.", "website": "https://www.gruenenberg.ch/", "wikidata": "Q105155112"}}, {"type": "node", "id": 8643766617, "lat": 46.2040867, "lon": 7.4082026, "tags": {"historic": "castle", "name": "Ruine der la Tour", "name:fr": "Ruine de la Tour Tavelli", "wikidata": "Q29929292"}}, {"type": "node", "id": 8745473692, "lat": 46.8410429, "lon": 7.544145, "tags": {"castle_type": "stately", "historic": "castle", "name": "Altes Schloss Gerzensee", "start_date": "1518", "wikidata": "Q439590", "wikipedia": "de:Altes Schloss Gerzensee"}}, {"type": "node", "id": 8930788836, "lat": 46.2145474, "lon": 7.251786, "tags": {"castle_type": "stately", "historic": "castle", "name": "ruines du ch\u00e2teau du Cr\u00eat", "ruins": "yes", "wikidata": "Q29891869"}}, {"type": "node", "id": 8930788837, "lat": 46.3691344, "lon": 8.0973602, "tags": {"historic": "castle", "name": "Burgruine", "ruins": "yes", "wikidata": "Q29892189"}}]}